station,area,habitat,receiver,model,transmit_id,code_set,type,ret_req,target,company,bma,farm_id,farm_name,vessel,techs,lat_dd,long_dd,lat_ddm,long_ddm,lat_deploy_dd,long_deploy_dd,deploy_datetime_utc_3,deploy_datetime_utc,gps,recorded_deploy_depth,est_depth,riser_length,instrument_depth,deployment_comments,retrieved_y_n_l,status,retreival_vessel,retrieval_techs,retrieval_latitude_dd,retrieval_longitude_dd,gps_id,ret_depth,ret_datetime_utc_3,ret_datetime_utc,offload_datetime_utc_3,offload_datetime_utc,saved_in_folder,backed_up,fouling,hydrophone_coverage,organisms,data_check,added_to_vue_y_n,log_size,filename,retrieval_comments
AZFP-01,Passamaquoddy Bay,inner bay,133267,VR2W,NA,NA,point,November,profiler,NA,NA,NA,NA,Viola,"Wilson, B.; Black, M.",44.99515,-67.00639,NA,NA,44.99335,-67.00807,2021-07-30T11:11:00Z,2021-07-30T14:11:00Z,NA,31.7,41.5,0.8,40.89,NA,Y,recovered,Viola,"Black, M.; Bradford, H.",44.99335,-67.00807,NA,NA,2021-11-01T10:11:00Z,2021-11-01T13:11:00Z,2021-11-02T15:56:00Z,2021-11-02T18:56:00Z,Y,Y,light,0,hydrozoan,Y,Y,0.4,VR2W_133267_20211102_1.csv,NA
BLP-I-01,Big L'etete Passage,inner bay,548185,VR2AR,60649,A69-1601-60649,gate,November,bay,NA,NA,NA,NA,Groundskeeper,"Wilson, B.; Black, M.",45.06943,-66.92144,45° 4.166',-66° 55.287',45.06957,-66.9219,2021-05-06T18:04:00Z,2021-05-06T21:04:00Z,85,NA,35,2.5,34.409,NA,Y,recovered,Viola,"Black, M.; Wilson, B.",45.0693,-66.92182,75,15.9,2021-11-30T13:26:00Z,2021-11-30T16:26:00Z,2021-12-10T11:05:00Z,2021-12-10T14:05:00Z,Y,Y,light,25,ciona,Y,Y,5.7,VR2AR_548185_20211210_1.csv,NA
BLP-I-02,Big L'etete Passage,inner bay,548186,VR2AR,60650,A69-1601-60650,gate,November,bay,NA,NA,NA,NA,Groundskeeper,"Wilson, B.; Black, M.",45.06526,-66.9238,45° 3.915',-66° 55.428',45.06502,-66.92374,2021-05-06T18:07:00Z,2021-05-06T21:07:00Z,86,NA,71.7,2.5,71.1019,NA,L,adrift,NA,NA,NA,NA,NA,NA,NA,NA,NA,NA,NA,NA,NA,NA,NA,NA,NA,NA,NA,"stuck down on position, likely entangled in lobster gear; went adrift on Nov 29"
BLP-I-03,Big L'etete Passage,inner bay,548187,VR2AR,60651,A69-1601-60651,gate,November,bay,NA,NA,NA,NA,Groundskeeper,"Wilson, B.; Black, M.",45.061,-66.92621,45° 3.660',-66° 55.573',45.06086,-66.92635,2021-05-06T18:09:00Z,2021-05-06T21:09:00Z,87,NA,58.4,2.5,57.7757,NA,Y,recovered,Salar,"Black, M.; Wilson, B.",45.06086,-66.92635,na,NA,2021-11-27T15:56:00Z,2021-11-27T18:56:00Z,2021-12-10T14:11:00Z,2021-12-10T17:11:00Z,Y,Y,light,0,hydrozoan,Y,Y,7.9,VR2AR_548187_20211210_1.csv,took 10 minutes to surface (~1m per minute); entangled in 2 lobster pot float lines
BLP-I-04,Big L'etete Passage,inner bay,548188,VR2AR,60652,A69-1601-60652,gate,November,bay,NA,NA,NA,NA,Groundskeeper,"Wilson, B.; Black, M.",45.0568,-66.92859,45° 3.408',-66° 55.715',45.05676,-66.92849,2021-05-06T18:12:00Z,2021-05-06T21:12:00Z,88,NA,51.2,2.5,50.6048,NA,Y,recovered,Salar,"Black, M.; Wilson, B.",45.0568,-66.92793,46,NA,2021-11-27T15:30:00Z,2021-11-27T18:30:00Z,2021-12-10T14:11:00Z,2021-12-10T17:11:00Z,Y,Y,light,10,hydrozoan,Y,Y,6.1,VR2AR_548188_20211210_1.csv,NA
BLP-O-01,Big L'etete Passage,inner bay,546750,VR2AR,61214,A69-1601-61214,gate,November,bay,NA,NA,NA,NA,Groundskeeper,"Wilson, B.; Black, M.",45.05985,-66.91404,45° 3.591',-66° 54.843',45.05957,-66.91427,2021-05-06T17:59:00Z,2021-05-06T20:59:00Z,84,NA,32.4,2.5,31.7943,NA,Y,recovered,Viola,"Black, M.; Wilson, B.",45.05926,-66.91388,671,NA,2021-07-05T13:52:00Z,2021-07-05T16:52:00Z,2021-07-05T14:32:00Z,2021-07-05T17:32:00Z,Y,Y,light,20,hydrozoan,Y,y,2.9,VR2AR_546750_20210705_1.csv,NA
BLP-O-02,Big L'etete Passage,inner bay,546751,VR2AR,61215,A69-1601-61215,gate,November,bay,NA,NA,NA,NA,Groundskeeper,"Wilson, B.; Black, M.",45.05653,-66.91614,45° 3.392',-66° 54.969',45.05659,-66.9162,2021-05-06T17:56:00Z,2021-05-06T20:56:00Z,83,NA,38.9,2.5,38.2649,NA,Y,recovered,Viola,"Black, M.; Wilson, B.",45.05611,-66.91619,670,NA,2021-07-05T13:47:00Z,2021-07-05T16:47:00Z,2021-07-05T14:30:00Z,2021-07-05T17:30:00Z,Y,Y,clean,0,none,Y,y,3,VR2AR_546751_20210705_1.csv,NA
BLP-O-03,Big L'etete Passage,inner bay,546752,VR2AR,61216,A69-1601-61216,gate,November,bay,NA,NA,NA,NA,Groundskeeper,"Wilson, B.; Black, M.",45.05324,-66.91822,45° 3.194',-66° 55.093',45.05329,-66.91843,2021-05-06T17:55:00Z,2021-05-06T20:55:00Z,82,NA,29.9,2.5,29.3255,NA,Y,recovered,Viola,"Black, M.; Wilson, B.",45.05292,-66.91794,669,NA,2021-07-05T13:40:00Z,2021-07-05T16:40:00Z,2021-07-05T14:25:00Z,2021-07-05T17:25:00Z,Y,Y,clean,0,none,Y,y,2.9,VR2AR_546752_20210705_1.csv,NA
BLP-O-04,Big L'etete Passage,inner bay,546753,VR2AR,61217,A69-1601-61217,gate,November,bay,NA,NA,NA,NA,Groundskeeper,"Wilson, B.; Black, M.",45.05,-66.92028,45° 3.000',-66° 55.216',45.0501,-66.92033,2021-05-06T17:52:00Z,2021-05-06T20:52:00Z,81,NA,23.5,2.5,22.9452,NA,Y,recovered,Viola,"Black, M.; Wilson, B.",45.0496,-66.91993,668,NA,2021-07-05T13:34:00Z,2021-07-05T16:34:00Z,2021-07-05T14:20:00Z,2021-07-05T17:20:00Z,Y,Y,clean,0,none,Y,y,2.7,VR2AR_546753_20210705_1.csv,NA
BR-01,Passamaquoddy Bay,estuary,124998,VR2W,NA,NA,gate,November,river,NA,NA,NA,NA,Groundskeeper,"Wilson, B.; Black, M.",45.15499,-66.98152,45° 9.299',-66° 58.891',45.15255,-66.98,2021-05-07T12:28:00Z,2021-05-07T15:28:00Z,106,NA,5.9,0.8,5.25509,NA,y,recovered,Viola,"Black, M.; Wilson, B.",45.15255,-66.98,na,NA,2021-11-24T10:00:00Z,2021-11-24T13:00:00Z,2021-11-24T10:09:00Z,2021-11-24T13:09:00Z,Y,Y,light,0,bryozoan,Y,Y,0.8,VR2W_124998_20211124_1.csv,NA
BR-01B,Passamaquoddy Bay,estuary,548193,VR2AR,60657,A69-1601-60657,gate,April,river,NA,NA,NA,NA,Viola,"Wilson, B.; Black, M.",45.15499,-66.98152,45° 9.299',-66° 58.891',45.15236,-66.98066,2021-11-24T10:02:00Z,2021-11-24T13:02:00Z,16,8,5.5,2.5,4.92408,NA,y,recovered,Princecraft,"Black, M.; Wilson, B.",45.15236,-66.98066,NA,NA,2022-04-26T14:00:00Z,2022-04-26T17:00:00Z,2022-04-26T16:11:00Z,2022-04-26T19:11:00Z,Y,Y,none,0,none,Y,Y,3.7,VR2AR_548193_20220426_1.csv,NA
BR-02,Passamaquoddy Bay,estuary,123515,VR2W,NA,NA,gate,November,river,NA,NA,NA,NA,ABCO,"Wilson, B.; Black, M.",NA,NA,NA,NA,45.1629,-66.98383,2021-07-13T13:38:00Z,2021-07-13T16:38:00Z,719,8.3,3.2,0.8,2.6,NA,Y,recovered,Princecraft,"Black, M.; Wilson, B.",45.16259,-66.98361,84,NA,2021-12-03T14:11:00Z,2021-12-03T17:11:00Z,2021-12-13T13:11:00Z,2021-12-13T16:11:00Z,Y,Y,light,10,hydrozoan,Y,Y,1.2,VR2W_123515_20211213_2.csv,station named as SCR-I-00 in VUE; exported new file as .csv with corrected station
CB-01,Cobscook Bay,outer bay,546686,VR2AR,61150,A69-1601-61150,gate,July,bay,NA,NA,NA,NA,Groundskeeper,"Wilson, B.; Black, M.",44.89116,-67.00008,44° 53.470',-67° 0.005',44.89107,-67.00009,2021-05-06T11:05:00Z,2021-05-06T14:05:00Z,43,NA,25.4,2.5,24.7739,NA,Y,recovered,Viola,"Black, M.; Wilson, B.",44.89092,-66.99913,661,NA,2021-07-05T10:47:00Z,2021-07-05T13:47:00Z,2021-07-05T13:10:00Z,2021-07-05T16:10:00Z,Y,Y,clean,0,none,Y,y,2.8,VR2AR_546686_20210705_1.csv,NA
CB-02,Cobscook Bay,outer bay,546689,VR2AR,61153,A69-1601-61153,gate,July,bay,NA,NA,NA,NA,Groundskeeper,"Wilson, B.; Black, M.",44.88863,-67.00504,44° 53.318',-67° 0.302',44.88862,-67.00496,2021-05-06T11:08:00Z,2021-05-06T14:08:00Z,44,NA,27.8,2.5,27.1751,NA,Y,recovered,Viola,"Black, M.; Wilson, B.",44.88831,-67.00404,662,NA,2021-07-05T10:55:00Z,2021-07-05T13:55:00Z,2021-07-05T13:24:00Z,2021-07-05T16:24:00Z,Y,Y,clean,0,none,Y,y,3.1,VR2AR_546689_20210705_1.csv,NA
CB-03,Cobscook Bay,outer bay,547427,VR2AR,61891,A69-1601-61891,gate,July,bay,NA,NA,NA,NA,Groundskeeper,"Wilson, B.; Black, M.",44.88608,-67.01001,44° 53.165',-67° 0.601',44.88595,-67.00996,2021-05-06T11:11:00Z,2021-05-06T14:11:00Z,45,NA,25.6,2.5,24.9543,NA,Y,recovered,Viola,"Black, M.; Wilson, B.",44.88542,-67.0091,663,NA,2021-07-05T11:09:00Z,2021-07-05T14:09:00Z,2021-07-05T13:30:00Z,2021-07-05T16:30:00Z,Y,Y,clean,0,none,Y,y,3.2,VR2AR_547427_20210705_1.csv,NA
CB-04,Cobscook Bay,outer bay,547428,VR2AR,61892,A69-1601-61892,gate,July,bay,NA,NA,NA,NA,Groundskeeper,"Wilson, B.; Black, M.",44.8836,-67.01486,44° 53.016',-67° 0.892',44.88417,-67.01488,2021-05-06T11:13:00Z,2021-05-06T14:13:00Z,46,NA,17.3,2.5,16.6968,NA,Y,recovered,Viola,"Black, M.; Wilson, B.",44.88373,-67.01479,664,20,2021-07-05T11:21:00Z,2021-07-05T14:21:00Z,2021-07-05T13:41:00Z,2021-07-05T16:41:00Z,Y,Y,light,20,hydrozoan,Y,y,2.7,VR2AR_547428_20210705_1.csv,NA
CH-01,Passamaquoddy Bay,inner bay,129077,VR2W,NA,NA,gate,November,bay,NA,NA,NA,NA,Groundskeeper,"Wilson, B.; Black, M.",45.12044,-67.04967,45° 7.226',-67° 2.980',45.12102,-67.05168,2021-05-07T11:11:00Z,2021-05-07T14:11:00Z,97,NA,5.9,0.8,5.30352,NA,y,recovered,Viola,"Black, M.; Wilson, B.",45.12087,-67.05163,22,9,2021-11-24T12:00:00Z,2021-11-24T15:00:00Z,2021-11-24T12:07:00Z,2021-11-24T15:07:00Z,Y,Y,light,0,hydrozoan,Y,Y,0.7,VR2W_129077_20211124_1.csv,possibly moved from original deployment location
CH-02,Passamaquoddy Bay,inner bay,129079,VR2W,NA,NA,gate,November,bay,NA,NA,NA,NA,Groundskeeper,"Wilson, B.; Black, M.",45.09299,-67.03521,45° 5.579',-67° 2.112',45.09324,-67.03506,2021-05-07T10:48:00Z,2021-05-07T13:48:00Z,96,NA,16.2,0.8,15.6332,NA,y,recovered,Viola,"Black, M.; Wilson, B.",45.09278,-67.0352,14,17.1,2021-11-24T09:07:00Z,2021-11-24T12:07:00Z,2021-11-24T09:24:00Z,2021-11-24T12:24:00Z,Y,Y,light,0,hydrozoan,Y,Y,0.8,VR2W_129079_20211124_1.csv,NA
CH-03,Passamaquoddy Bay,inner bay,129081,VR2W,NA,NA,gate,November,bay,NA,NA,NA,NA,Groundskeeper,"Wilson, B.; Black, M.",45.08836,-67.03978,45° 5.302',-67° 2.387',45.08833,-67.03986,2021-05-07T10:45:00Z,2021-05-07T13:45:00Z,95,NA,12.5,0.8,11.9452,NA,y,recovered,Viola,"Black, M.; Wilson, B.",45.08763,-67.03942,15,12.8,2021-11-24T09:15:00Z,2021-11-24T12:15:00Z,2021-11-24T09:41:00Z,2021-11-24T12:41:00Z,Y,Y,clean,0,none,Y,Y,0.8,VR2W_129081_20211124_1.csv,NA
DI-01,Passamaquoddy Bay,inner bay,110587,VR2W,NA,NA,gate,November,bay,NA,NA,NA,NA,Groundskeeper,"Wilson, B.; Black, M.",45.02707,-67.00113,45° 1.624',-67° 0.068',45.02724,-67.00077,2021-05-07T15:40:00Z,2021-05-07T18:40:00Z,122,NA,29.9,0.8,29.3347,NA,y,recovered,Viola,"Wilson, B.",45.02687,-67.00078,39,25,2021-11-26T09:47:00Z,2021-11-26T12:47:00Z,2021-12-13T12:12:00Z,2021-12-13T15:12:00Z,Y,Y,light,0,ciona,Y,Y,1.9,VR2W_110587_20211213_2.csv,station entered as DP-O-01 in VUE; exported new file as .csv with corrected station
DI-02,Passamaquoddy Bay,inner bay,111480,VR2W,NA,NA,gate,November,bay,NA,NA,NA,NA,Groundskeeper,"Wilson, B.; Black, M.",45.02353,-66.99611,45° 1.412',-66° 59.767',45.02367,-66.9971,2021-05-07T15:33:00Z,2021-05-07T18:33:00Z,121,NA,28.7,0.8,28.0575,NA,y,recovered,Viola,"Wilson, B.",45.023383,-66.99728,40,26.1,2021-11-26T09:53:00Z,2021-11-26T12:53:00Z,2021-12-13T13:17:00Z,2021-12-13T16:17:00Z,Y,Y,light,0,ciona,Y,Y,2.4,VR2W_111480_20211213_1.csv,NA
DI-03,Passamaquoddy Bay,inner bay,115060,VR2W,NA,NA,gate,November,bay,NA,NA,NA,NA,Groundskeeper,"Wilson, B.; Black, M.",45.01999,-66.99109,45° 1.199',-66° 59.466',45.01974,-66.99126,2021-05-07T15:27:00Z,2021-05-07T18:27:00Z,120,NA,30.7,0.8,30.1001,NA,y,recovered,Viola,"Wilson, B.",45.01943,-66.99138,41,29.6,2021-11-26T09:59:00Z,2021-11-26T12:59:00Z,2021-12-13T13:07:00Z,2021-12-13T16:07:00Z,Y,Y,light,0,ciona,Y,Y,3.3,VR2W_115060_20211213_1.csv,NA
DI-04,Passamaquoddy Bay,inner bay,115076,VR2W,NA,NA,gate,November,bay,NA,NA,NA,NA,Groundskeeper,"Wilson, B.; Black, M.",45.01639,-66.98599,45° 0.983',-66° 59.160',45.01635,-66.98602,2021-05-07T15:21:00Z,2021-05-07T18:21:00Z,119,NA,31.7,0.8,31.1234,NA,y,recovered,Viola,"Wilson, B.",45.01608,-66.98602,42,32.1,2021-11-26T10:06:00Z,2021-11-26T13:06:00Z,2021-12-13T12:16:00Z,2021-12-13T15:16:00Z,Y,Y,light,0,ciona,Y,Y,3,VR2W_115076_20211213_1.csv,NA
DP-I-01,Doyle's Passage,inner bay,115078,VR2W,NA,NA,gate,November,bay,NA,NA,NA,NA,Groundskeeper,"Wilson, B.; Black, M.",45.02133,-66.96287,45° 1.280',-66° 57.772',45.02122,-66.9629,2021-05-07T15:06:00Z,2021-05-07T18:06:00Z,118,NA,13.1,0.8,12.4658,NA,y,recovered,Viola,"Wilson, B.",45.02118,-66.96293,43,12.8,2021-11-26T10:21:00Z,2021-11-26T13:21:00Z,2021-12-13T12:22:00Z,2021-12-13T15:22:00Z,Y,Y,light,0,ciona,Y,Y,2.7,VR2W_115078_20211213_1.csv,NA
DP-O-01,Doyle's Passage,inner bay,115087,VR2W,NA,NA,gate,November,bay,NA,NA,NA,NA,Groundskeeper,"Wilson, B.; Black, M.",45.02877,-66.94311,45° 1.726',-66° 56.587',45.02903,-66.9418,2021-05-07T14:48:00Z,2021-05-07T17:48:00Z,117,NA,5.1,0.8,4.54648,NA,y,recovered,Viola,"Black, M.; Wilson, B.",45.02904,-66.94164,672,9.2,2021-07-06T10:45:00Z,2021-07-06T13:45:00Z,2021-07-06T10:58:00Z,2021-07-06T13:58:00Z,Y,Y,clean,0,urchins,Y,Y,0.8,VR2W_115087_20210706_2.csv,station entered as DI-01 in VUE; exported new file as .csv with corrected station
DR-01,Passamaquoddy Bay,estuary,119146,VR2W,NA,NA,gate,November,river,NA,NA,NA,NA,Groundskeeper,"Wilson, B.; Black, M.",45.15163,-66.95107,45° 9.098',-66° 57.064',45.15447,-66.95438,2021-05-07T12:58:00Z,2021-05-07T15:58:00Z,108,NA,5.7,0.8,5.13369,NA,y,recovered,Viola,"Black, M.; Wilson, B.",45.15405,-66.9541,18,7.1,2021-11-24T10:36:00Z,2021-11-24T13:36:00Z,2021-11-24T10:45:00Z,2021-11-24T13:45:00Z,Y,Y,light,0,bryozoan,Y,Y,0.9,VR2W_119146_20211124_1.csv,NA
DR-02,Passamaquoddy Bay,estuary,119153,VR2W,NA,NA,gate,November,river,NA,NA,NA,NA,Groundskeeper,"Wilson, B.; Black, M.",45.15166,-66.96471,45° 9.099',-66° 57.882',45.1516,-66.96471,2021-05-07T12:41:00Z,2021-05-07T15:41:00Z,107,NA,16.8,0.8,16.2072,NA,y,recovered,Viola,"Black, M.; Wilson, B.",45.1514,-66.96425,17,21,2021-11-24T10:20:00Z,2021-11-24T13:20:00Z,2021-11-24T10:26:00Z,2021-11-24T13:26:00Z,Y,Y,clean,0,none,Y,Y,1,VR2W_119153_20211124_1.csv,NA
DR-03,Passamaquoddy Bay,estuary,134767,VR2W,NA,NA,gate,November,river,NA,NA,NA,NA,ABCO,"Wilson, B.; Black, M.",NA,NA,NA,NA,45.18426,-66.95972,2021-07-13T14:30:00Z,2021-07-13T17:30:00Z,720,9.5,2.1,0.8,1.5,NA,Y,recovered,Princecraft,"Black, M.; Wilson, B.",45.18391,-66.95982,82,NA,2021-12-03T13:33:00Z,2021-12-03T16:33:00Z,2021-12-03T16:16:00Z,2021-12-03T19:16:00Z,Y,Y,clean,0,none,Y,Y,0.4,VR2W_134767_20211203_1.csv,NA
DR-03B,Passamaquoddy Bay,estuary,548191,VR2AR,60655,A69-1601-60655,gate,April,river,NA,NA,NA,NA,Princecraft,"Wilson, B.; Black, M.",NA,NA,NA,NA,45.18399,-66.95982,2021-12-03T13:34:00Z,2021-12-03T16:34:00Z,83,NA,2.1,2.5,1.5,NA,Y,recovered,Princecraft,"Black, M.; Wilson, B.",45.18399,-66.95982,NA,NA,2022-04-26T13:21:00Z,2022-04-26T16:21:00Z,2022-04-26T16:19:00Z,2022-04-26T19:19:00Z,Y,Y,clean,0,none,Y,Y,NA,VR2AR_548191_20220426_1.csv,NA
DS-01,Saint Croix River,estuary,133266,VR2W,NA,NA,gate,November,river,NA,NA,NA,NA,shore,"Wilson, B.; Black, M.",NA,NA,NA,NA,45.19155,-67.25869,2021-09-10T09:16:00Z,2021-09-10T12:16:00Z,NA,1,1.2,0.8,0.6,NA,Y,recovered,shore,"Black, M.",45.19155,-67.25869,NA,1,2022-01-10T09:54:00Z,2022-01-10T12:54:00Z,2022-01-13T15:20:00Z,2022-01-13T18:20:00Z,Y,Y,clean,0,none,Y,Y,0.7,VR2W_133266_20220113_1.csv,NA
FI-01,Fundy Isles,outer bay,546682,VR2AR,61146,A69-1601-61146,gate,July,bay,NA,NA,NA,NA,Groundskeeper,"Wilson, B.; Black, M.",45.03661,-66.80751,45° 2.197',-66° 48.451',45.03654,-66.80747,2021-05-06T14:59:00Z,2021-05-06T17:59:00Z,66,NA,24.6,2.5,24.042,NA,Y,recovered,Viola,"Black, M.; Wilson, B.",45.03647,-66.80746,680,28.6,2021-07-07T09:54:00Z,2021-07-07T12:54:00Z,2021-07-08T15:54:00Z,2021-07-08T18:54:00Z,Y,Y,clean,0,none,Y,Y,3.1,VR2AR_546682_20210708_1.csv,NA
FI-01B,Fundy Isles,outer bay,124676,VR2W,NA,NA,gate,November,bay,NA,NA,NA,NA,Viola,"Wilson, B.; Black, M.",45.036612,-66.80751,45° 2.197',-66° 48.451',45.03666,-66.80779,2021-07-07T10:02:00Z,2021-07-07T13:02:00Z,681,NA,24.6,0.8,24.042,NA,Y,recovered,Viola,"Black, M.; Wilson, B.; Bradford, H.",45.0368,-66.80747,10,25,2021-11-23T10:54:00Z,2021-11-23T13:54:00Z,2021-11-23T13:04:00Z,2021-11-23T16:04:00Z,Y,Y,light,0,barnacles,Y,Y,1.7,VR2W_124676_20211123_1.csv,NA
FI-02,Fundy Isles,outer bay,550012,VR2AR,60285,A69-1601-60285,gate,November,bay,NA,NA,NA,NA,Groundskeeper,"Wilson, B.; Black, M.",45.03453,-66.81232,45° 2.072',-66° 48.739',45.03454,-66.81226,2021-05-06T14:57:00Z,2021-05-06T17:57:00Z,65,NA,34.4,2.5,33.8159,NA,Y,recovered,Viola,"Black, M.; Wilson, B.; Bradford, H.",45.03476,-66.81222,11,28,2021-11-23T11:05:00Z,2021-11-23T14:05:00Z,2021-11-23T12:45:00Z,2021-11-23T15:45:00Z,Y,Y,light,0,ciona,Y,Y,3.2,VR2AR_550012_20211123_1.csv,NA
FI-03,Fundy Isles,outer bay,550013,VR2AR,60286,A69-1601-60286,gate,November,bay,NA,NA,NA,NA,Groundskeeper,"Wilson, B.; Black, M.",45.03287,-66.8185,45° 1.972',-66° 49.110',45.03286,-66.81839,2021-05-06T14:54:00Z,2021-05-06T17:54:00Z,64,NA,26.9,2.5,26.2758,NA,Y,recovered,Viola,"Black, M.; Wilson, B.; Bradford, H.",45.03288,-66.81828,12,24,2021-11-23T11:13:00Z,2021-11-23T14:13:00Z,2021-11-23T12:30:00Z,2021-11-23T15:30:00Z,Y,Y,light,0,ciona,Y,y,3,VR2AR_550013_20211123_1.csv,NA
FI-04,Fundy Isles,outer bay,547437,VR2AR,61901,A69-1601-61901,gate,July,bay,NA,NA,NA,NA,Groundskeeper,"Wilson, B.; Black, M.",45.01591,-66.85219,45° 0.955',-66° 51.132',45.015860000000004,-66.85237,2021-05-06T14:30:00Z,2021-05-06T17:30:00Z,63,NA,26.5,2.5,25.8807,NA,Y,recovered,Viola,"Black, M.; Wilson, B.",45.01574,-66.85227,682,NA,2021-07-07T10:17:00Z,2021-07-07T13:17:00Z,2021-07-08T16:03:00Z,2021-07-08T19:03:00Z,Y,Y,light,20,hydrozoan,Y,Y,4.3,VR2AR_547437_20210708_1.csv,NA
FI-04B,Fundy Isles,outer bay,546750,VR2AR,61214,A69-1601-61214,gate,November,bay,NA,NA,NA,NA,Viola,"Wilson, B.; Black, M.",45.015913,-66.852193,45° 0.955',-66° 51.132',45.01607,-66.85227,2021-07-07T10:20:00Z,2021-07-07T13:20:00Z,683,NA,16.9,2.5,16.2872,NA,Y,recovered,Viola,"Wilson, B.",45.01562,-66.85268,47,NA,2021-11-29T10:20:00Z,2021-11-29T13:20:00Z,2021-12-10T12:02:00Z,2021-12-10T15:02:00Z,Y,Y,medium,20,ciona,Y,Y,6.1,VR2AR_546750_20211210_1.csv,NA
FI-05,Fundy Isles,outer bay,547438,VR2AR,61902,A69-1601-61902,gate,July,bay,NA,NA,NA,NA,Groundskeeper,"Wilson, B.; Black, M.",45.01151,-66.85541,45° 0.690',-66° 51.324',45.01163,-66.85547,2021-05-06T14:25:00Z,2021-05-06T17:25:00Z,62,NA,56.7,2.5,56.0751,NA,Y,recovered,Viola,"Black, M.; Wilson, B.",45.01159,-66.8557,684,NA,2021-07-07T10:24:00Z,2021-07-07T13:24:00Z,2021-07-08T16:06:00Z,2021-07-08T19:06:00Z,Y,Y,clean,0,none,Y,Y,3,VR2AR_547438_20210708_1.csv,NA
FI-05B,Fundy Isles,outer bay,546751,VR2AR,61215,A69-1601-61215,gate,November,bay,NA,NA,NA,NA,Viola,"Wilson, B.; Black, M.",45.011507,-66.855405,45° 0.690',-66° 51.324',45.01151,-66.85601,2021-07-07T10:27:00Z,2021-07-07T13:27:00Z,685,NA,56.9,2.5,56.3188,NA,Y,recovered,Viola,"Wilson, B.",45.011,-66.8552,48,NA,2021-11-29T10:27:00Z,2021-11-29T13:27:00Z,2021-12-10T10:39:00Z,2021-12-10T13:39:00Z,Y,Y,light,10,hydrozoan,Y,Y,6.2,VR2AR_546751_20211210_1.csv,NA
FI-06,Fundy Isles,outer bay,547441,VR2AR,61905,A69-1601-61905,gate,July,bay,NA,NA,NA,NA,Groundskeeper,"Wilson, B.; Black, M.",45.00716,-66.85858,45° 0.429',-66° 51.515',45.00713,-66.85887,2021-05-06T14:22:00Z,2021-05-06T17:22:00Z,61,NA,88.2,2.5,87.6434,NA,Y,recovered,Viola,"Black, M.; Wilson, B.",45.00697,-66.85906,686,NA,2021-07-07T10:34:00Z,2021-07-07T13:34:00Z,2021-07-08T15:58:00Z,2021-07-08T18:58:00Z,Y,Y,clean,0,none,Y,Y,3,VR2AR_547441_20210708_1.csv,NA
FI-06B,Fundy Isles,outer bay,546752,VR2AR,61216,A69-1601-61216,gate,November,bay,NA,NA,NA,NA,Viola,"Wilson, B.; Black, M.",45.007158,-66.858576,45° 0.429',-66° 51.515',45.00693,-66.85914,2021-07-07T10:35:00Z,2021-07-07T13:35:00Z,687,NA,88.2,2.5,87.6434,NA,Y,recovered,Viola,"Wilson, B.",45.00693,-66.85914,na,NA,2021-11-29T10:33:00Z,2021-11-29T13:33:00Z,2021-12-10T11:10:00Z,2021-12-10T14:10:00Z,Y,Y,light,0,hydrozoan,Y,Y,6.2,VR2AR_546752_20211210_1.csv,NA
FI-07,Fundy Isles,outer bay,547442,VR2AR,61906,A69-1601-61906,gate,July,bay,NA,NA,NA,NA,Groundskeeper,"Wilson, B.; Black, M.",45.00278,-66.86177,45° 0.167',-66° 51.706',45.00274,-66.86207,2021-05-06T14:19:00Z,2021-05-06T17:19:00Z,60,NA,95.9,2.5,95.3486,NA,Y,recovered,Viola,"Black, M.; Wilson, B.",45.00234,-66.86222,688,NA,2021-07-07T10:40:00Z,2021-07-07T13:40:00Z,2021-07-08T12:11:00Z,2021-07-08T15:11:00Z,Y,Y,light,10,hydrozoan,Y,Y,3.4,VR2AR_547442_20210708_1.csv,NA
FI-07B,Fundy Isles,outer bay,546753,VR2AR,61217,A69-1601-61217,gate,November,bay,NA,NA,NA,NA,Viola,"Wilson, B.; Black, M.",45.002776,-66.86177,45° 0.167',-66° 51.706',45.00217,-66.86218,2021-07-07T10:41:00Z,2021-07-07T13:41:00Z,689,NA,70.9,2.5,70.2947,NA,Y,recovered,Viola,"Wilson, B.",45.00177,-66.86165,49,NA,2021-11-29T10:40:00Z,2021-11-29T13:40:00Z,2021-12-10T10:14:00Z,2021-12-10T13:14:00Z,Y,Y,light,20,hydrozoan,Y,Y,7.2,VR2AR_546753_20211210_1.csv,NA
FI-08,Fundy Isles,outer bay,547443,VR2AR,61907,A69-1601-61907,gate,July,bay,NA,NA,NA,NA,Groundskeeper,"Wilson, B.; Black, M.",44.99839,-66.86497,44° 59.903',-66° 51.898',44.99839,-66.86504,2021-05-06T14:12:00Z,2021-05-06T17:12:00Z,59,NA,68.6,2.5,68.0128,NA,Y,recovered,Viola,"Black, M.; Wilson, B.",44.99794,-66.86526,690,NA,2021-07-07T10:46:00Z,2021-07-07T13:46:00Z,2021-07-08T12:37:00Z,2021-07-08T15:37:00Z,Y,Y,clean,10,hydrozoan,Y,Y,3.1,VR2AR_547443_20210708_1.csv,NA
FI-08B,Fundy Isles,outer bay,545684,VR2AR,60148,A69-1601-60148,gate,November,bay,NA,NA,NA,NA,Viola,"Wilson, B.; Black, M.",44.998388,-66.864969,44° 59.903',-66° 51.898',44.99849,-66.865,2021-07-07T10:48:00Z,2021-07-07T13:48:00Z,691,NA,73.2,2.5,72.6324,NA,Y,recovered,Viola,"Wilson, B.",45.99782,-66.86462,50,NA,2021-11-29T10:48:00Z,2021-11-29T13:48:00Z,2021-12-10T12:08:00Z,2021-12-10T15:08:00Z,Y,Y,light,0,hydrozoan,Y,Y,6.2,VR2AR_545684_20211210_1.csv,NA
FI-09,Fundy Isles,outer bay,547444,VR2AR,61908,A69-1601-61908,gate,July,bay,NA,NA,NA,NA,Groundskeeper,"Wilson, B.; Black, M.",44.99449,-66.86916,44° 59.669',-66° 52.150',44.99453,-66.86903,2021-05-06T14:09:00Z,2021-05-06T17:09:00Z,58,NA,35.6,2.5,35.0198,NA,Y,recovered,Viola,"Black, M.; Wilson, B.",44.99434,-66.86932,692,NA,2021-07-07T10:54:00Z,2021-07-07T13:54:00Z,2021-07-08T15:43:00Z,2021-07-08T18:43:00Z,Y,Y,light,10,hydrozoan,Y,Y,2.6,VR2AR_547444_20210708_1.csv,NA
FI-09B,Fundy Isles,outer bay,124677,VR2W,NA,NA,gate,November,bay,NA,NA,NA,NA,Viola,"Wilson, B.; Black, M.",44.994486,-66.869164,44° 59.669',-66° 52.150',44.99458,-66.86909,2021-07-07T10:59:00Z,2021-07-07T13:59:00Z,693,NA,35.6,0.8,35.0198,NA,Y,recovered,Viola,"Wilson, B.",44.99458,-66.86909,na,NA,2021-11-29T11:01:00Z,2021-11-29T14:01:00Z,2021-12-10T12:10:00Z,2021-12-10T15:10:00Z,Y,Y,light,0,hydrozoan,Y,Y,1.8,VR2W_124677_20211210_1.csv,NA
FI-10,Fundy Isles,outer bay,547445,VR2AR,61909,A69-1601-61909,gate,July,bay,NA,NA,NA,NA,Groundskeeper,"Wilson, B.; Black, M.",44.98856,-66.87476,44° 59.314',-66° 52.486',44.98865,-66.87492,2021-05-06T14:02:00Z,2021-05-06T17:02:00Z,57,NA,39.9,2.5,39.3276,NA,Y,recovered,Viola,"Black, M.; Wilson, B.",44.98867,-66.87503,694,NA,2021-07-07T11:11:00Z,2021-07-07T14:11:00Z,2021-07-08T12:23:00Z,2021-07-08T15:23:00Z,Y,Y,light,20,hydrozoan,Y,Y,3,VR2AR_547445_20210708_1.csv,NA
FI-10B,Fundy Isles,outer bay,546501,VR2AR,60965,A69-1601-60965,gate,November,bay,NA,NA,NA,NA,Viola,"Wilson, B.; Black, M.",44.988563,-66.874761,44° 59.314',-66° 52.486',44.98862,-66.87512,2021-07-07T11:13:00Z,2021-07-07T14:13:00Z,695,NA,39.9,2.5,39.3276,NA,Y,recovered,Viola,"Wilson, B.",44.98845,-66.87495,51,NA,2021-11-29T11:10:00Z,2021-11-29T14:10:00Z,2021-12-10T10:35:00Z,2021-12-10T13:35:00Z,Y,Y,light,20,jingle shells,Y,Y,6.1,VR2AR_546501_20211210_1.csv,NA
FI-11,Fundy Isles,outer bay,546754,VR2AR,61218,A69-1601-61218,gate,November,bay,NA,NA,NA,NA,Eubalaena,"Wilson, B.; Black, M.",44.984610000000004,-66.87789,44° 59.076',-66° 52.673',44.98466,-66.87786,2021-05-13T10:27:00Z,2021-05-13T13:27:00Z,126,NA,82.1,2.5,81.4994,NA,Y,recovered,Viola,"Wilson, B.",44.98431,-66.877716,53,NA,2021-11-29T11:27:00Z,2021-11-29T14:27:00Z,2021-12-10T12:13:00Z,2021-12-10T15:13:00Z,Y,Y,medium,20,hydrozoan,Y,Y,8.7,VR2AR_546754_20211210_1.csv,NA
FI-12,Fundy Isles,outer bay,549649,VR2AR,60257,A69-1601-60257,gate,July,bay,NA,NA,NA,NA,Groundskeeper,"Wilson, B.; Black, M.",44.98037,-66.88124,44° 58.822',-66° 52.874',44.98037,-66.88124,2021-05-06T13:58:00Z,2021-05-06T16:58:00Z,NA,NA,79.1,2.5,78.5193,NA,Y,recovered,Viola,"Black, M.; Wilson, B.",44.98008,-66.88179,696,NA,2021-07-07T11:19:00Z,2021-07-07T14:19:00Z,2021-07-08T15:49:00Z,2021-07-08T18:49:00Z,Y,Y,light,20,hydrozoan,Y,Y,1.8,VR2AR_549649_20210708_1.csv,NA
FI-12B,Fundy Isles,outer bay,546528,VR2AR,60992,A69-1601-60992,gate,November,bay,NA,NA,NA,NA,Viola,"Wilson, B.; Black, M.",44.980369,-66.881238,44° 58.822',-66° 52.874',44.98077,-66.88108,2021-07-07T11:23:00Z,2021-07-07T14:23:00Z,697,NA,80.6,2.5,80.0308,NA,Y,recovered,Viola,"Wilson, B.",44.9805,-66.88085,52,NA,2021-11-29T11:18:00Z,2021-11-29T14:18:00Z,2021-12-10T12:16:00Z,2021-12-10T15:16:00Z,Y,Y,light,20,hydrozoan,Y,Y,7.5,VR2AR_546528_20211210_1.csv,NA
FI-13,Fundy Isles,outer bay,549650,VR2AR,60258,A69-1601-60258,gate,July,bay,NA,NA,NA,NA,Groundskeeper,"Wilson, B.; Black, M.",44.97187,-66.88795,44° 58.312',-66° 53.277',44.97516,-66.88458,2021-05-06T13:54:00Z,2021-05-06T16:54:00Z,56,NA,87.2,2.5,86.5628,NA,Y,recovered,Viola,"Black, M.; Wilson, B.",44.9763,-66.88473,698,NA,2021-07-07T11:32:00Z,2021-07-07T14:32:00Z,2021-07-08T11:50:00Z,2021-07-08T14:50:00Z,Y,Y,light,0,hydrozoan,Y,Y,1.8,VR2AR_549650_20210708_1.csv,NA
FI-13B,Fundy Isles,outer bay,548180,VR2AR,60644,A69-1601-60644,gate,November,bay,NA,NA,NA,NA,Viola,"Wilson, B.; Black, M.",44.971874,-66.887953,44° 58.312',-66° 53.277',44.97608,-66.88425,2021-07-07T11:34:00Z,2021-07-07T14:34:00Z,699,NA,86.2,2.5,85.5546,NA,Y,recovered,Viola,"Wilson, B.",44.9759,-66.88415,54,NA,2021-11-29T11:39:00Z,2021-11-29T14:39:00Z,2021-12-10T11:13:00Z,2021-12-10T14:13:00Z,Y,Y,clean,0,none,Y,Y,7,VR2AR_548180_20211210_1.csv,NA
FI-14,Fundy Isles,outer bay,549651,VR2AR,60259,A69-1601-60259,gate,July,bay,NA,NA,NA,NA,Groundskeeper,"Wilson, B.; Black, M.",44.97612,-66.8846,44° 58.567',-66° 53.076',44.97183,-66.88803,2021-05-06T13:50:00Z,2021-05-07T16:50:00Z,NA,NA,89.3,2.5,88.7423,NA,Y,recovered,Viola,"Black, M.; Wilson, B.",44.9719,-66.88788,700,NA,2021-07-07T11:41:00Z,2021-07-07T14:41:00Z,2021-07-08T11:59:00Z,2021-07-08T14:59:00Z,Y,Y,clean,0,none,Y,Y,1.7,VR2AR_549651_20210708_1.csv,NA
FI-14B,Fundy Isles,outer bay,548181,VR2AR,60645,A69-1601-60645,gate,November,bay,NA,NA,NA,NA,Viola,"Wilson, B.; Black, M.",44.976121,-66.884597,44° 58.567',-66° 53.076',44.97197,-66.88815,2021-07-07T11:44:00Z,2021-07-07T14:44:00Z,701,NA,87.5,2.5,86.9203,NA,Y,recovered,Viola,"Wilson, B.",44.97212,-66.88675,55,NA,2021-11-29T11:49:00Z,2021-11-29T14:49:00Z,2021-12-10T12:19:00Z,2021-12-10T15:19:00Z,Y,Y,light,10,hydrozoan,Y,Y,6.6,VR2AR_548181_20211210_1.csv,NA
FI-15,Fundy Isles,outer bay,549652,VR2AR,60260,A69-1601-60260,gate,July,bay,NA,NA,NA,NA,Groundskeeper,"Wilson, B.; Black, M.",44.96765,-66.89129,44° 58.059',-66° 53.477',44.96808,-66.89204,2021-05-06T13:46:00Z,2021-05-06T16:46:00Z,54,NA,85.8,2.5,85.2286,NA,Y,recovered,Viola,"Black, M.; Wilson, B.",44.96837,-66.89126,702,NA,2021-07-07T11:47:00Z,2021-07-07T14:47:00Z,2021-07-08T12:16:00Z,2021-07-08T15:16:00Z,Y,Y,clean,0,none,Y,Y,1.7,VR2AR_549652_20210708_1.csv,NA
FI-15B,Fundy Isles,outer bay,548182,VR2AR,60646,A69-1601-60646,gate,November,bay,NA,NA,NA,NA,Viola,"Wilson, B.; Black, M.",44.967653,-66.89129,44° 58.059',-66° 53.477',44.96746,-66.89123,2021-07-07T11:51:00Z,2021-07-07T14:51:00Z,703,NA,89.6,2.5,89.0235,NA,Y,recovered,Viola,"Wilson, B.",44.96795,-66.88988,56,NA,2021-11-29T11:51:00Z,2021-11-29T14:51:00Z,2021-12-10T12:05:00Z,2021-12-10T15:05:00Z,Y,Y,light,10,hydrozoan,Y,Y,6.9,VR2AR_548182_20211210_1.csv,NA
FI-16,Fundy Isles,outer bay,549653,VR2AR,60261,A69-1601-60261,gate,July,bay,NA,NA,NA,NA,Groundskeeper,"Wilson, B.; Black, M.",44.96357,-66.89452,44° 57.814',-66° 53.671',44.96407,-66.89563,2021-05-06T13:43:00Z,2021-05-06T16:43:00Z,53,NA,107.3,2.5,106.658,NA,Y,recovered,Viola,"Black, M.; Wilson, B.",44.944433,-66.63111,na,NA,2021-07-07T11:57:00Z,2021-07-07T14:57:00Z,2021-07-08T15:37:00Z,2021-07-08T18:37:00Z,Y,Y,light,10,hydrozoan,Y,Y,1.6,VR2AR_549653_20210708_1.csv,NA
FI-16B,Fundy Isles,outer bay,548183,VR2AR,60647,A69-1601-60647,gate,November,bay,NA,NA,NA,NA,Viola,"Wilson, B.; Black, M.",44.963573,-66.894516,44° 57.814',-66° 53.671',44.9634,-66.89439,2021-07-07T12:01:00Z,2021-07-07T15:01:00Z,704,NA,106,2.5,105.398,NA,Y,recovered,Viola,"Wilson, B.",44.96416,-66.89145,57,NA,2021-11-29T12:07:00Z,2021-11-29T15:07:00Z,2021-12-10T13:59:00Z,2021-12-10T16:59:00Z,Y,Y,clean,0,none,Y,Y,6.6,VR2AR_548183_20211210_1.csv,NA
FI-17,Fundy Isles,outer bay,549654,VR2AR,60262,A69-1601-60262,gate,July,bay,NA,NA,NA,NA,Groundskeeper,"Wilson, B.; Black, M.",44.95983,-66.89747,44° 57.590',-66° 53.848',44.95987,-66.89754,2021-05-06T13:40:00Z,2021-05-06T16:40:00Z,52,NA,39,2.5,38.3627,NA,Y,recovered,Viola,"Black, M.; Wilson, B.",44.95998,-66.8979,705,NA,2021-07-07T12:08:00Z,2021-07-07T15:08:00Z,2021-07-07T02:34:00Z,2021-07-07T05:34:00Z,Y,Y,light,10,hydrozoan,Y,Y,1.5,VR2AR_549654_20210707_1.csv,NA
FI-17B,Fundy Isles,outer bay,548184,VR2AR,60648,A69-1601-60648,gate,November,bay,NA,NA,NA,NA,Viola,"Wilson, B.; Black, M.",44.959834,-66.897471,44° 57.590',-66° 53.848',44.95955,-66.89746,2021-07-07T12:11:00Z,2021-07-07T15:11:00Z,706,NA,39,2.5,38.3627,NA,Y,recovered,Viola,"Wilson, B.",44.95973,-66.89703,58,NA,2021-11-29T12:12:00Z,2021-11-29T15:12:00Z,2021-12-10T10:31:00Z,2021-12-10T13:31:00Z,Y,Y,light,10,hydrozoan,Y,Y,6.3,VR2AR_548184_20211210_1.csv,NA
HHP-01,Head Harbour Passage,outer bay,548189,VR2AR,60653,A69-1601-60653,gate,November,bay,NA,NA,NA,NA,Groundskeeper,"Wilson, B.; Black, M.",44.96403,-66.95423,44° 57.841',-66° 57.254',44.9642,-66.95436,2021-05-06T16:58:00Z,2021-05-06T19:58:00Z,78,NA,29.6,2.5,29.0395,NA,Y,recovered,Salar,"Wilson, B.; Black, M.; Lawrence, M.; English, G.",44.96412,-66.95425,NA,35,2021-11-17T11:55:00Z,2021-11-17T14:55:00Z,2021-11-17T12:25:00Z,2021-11-17T15:25:00Z,Y,Y,clean,0,none,Y,y,6.3,VR2AR_548189_20211118_1.csv,NA
HHP-02,Head Harbour Passage,outer bay,548190,VR2AR,60654,A69-1601-60654,gate,November,bay,NA,NA,NA,NA,Groundskeeper,"Wilson, B.; Black, M.",44.96136,-66.94903,44° 57.681',-66° 56.941',44.96127,-66.94888,2021-05-06T16:55:00Z,2021-05-06T19:55:00Z,77,NA,48.9,2.5,48.3416,NA,Y,recovered,Salar,"Wilson, B.; Black, M.; Lawrence, M.; English, G.",44.96315,-66.9316,NA,50,2021-11-17T13:00:00Z,2021-11-17T16:00:00Z,2021-11-18T11:09:00Z,2021-11-18T14:09:00Z,Y,Y,clean,0,none,Y,y,7.5,VR2AR_548190_20211118_1.csv,"stayed on bottom following release, loosened 10 minutes later, tracked down using VR100 to recover having drifted from release position"
HHP-03,Head Harbour Passage,outer bay,548191,VR2AR,60655,A69-1601-60655,gate,November,bay,NA,NA,NA,NA,Groundskeeper,"Wilson, B.; Black, M.",44.95872,-66.94388,44° 57.523',-66° 56.633',44.96049,-66.94366,2021-05-06T16:52:00Z,2021-05-06T19:52:00Z,76,NA,54.5,2.5,53.9344,NA,Y,recovered,Salar,"Wilson, B.; Black, M.; Lawrence, M.; English, G.",44.96063,-66.94297,NA,12,2021-11-17T12:14:00Z,2021-11-17T15:14:00Z,2021-11-18T10:57:00Z,2021-11-18T13:57:00Z,Y,Y,clean,0,none,Y,y,6.4,VR2AR_548191_20211118_1.csv,NA
HHP-04,Head Harbour Passage,outer bay,548193,VR2AR,60657,A69-1601-60657,gate,November,bay,NA,NA,NA,NA,Groundskeeper,"Wilson, B.; Black, M.",44.95611,-66.9388,44° 57.366',-66° 56.328',44.95628,-66.93891,2021-05-06T16:49:00Z,2021-05-06T19:49:00Z,75,NA,21.1,2.5,20.5088,NA,Y,recovered,Salar,"Wilson, B.; Black, M.; Lawrence, M.; English, G.",44.95648,-66.93817,NA,NA,2021-11-17T12:23:00Z,2021-11-17T15:23:00Z,2021-11-18T09:14:00Z,2021-11-18T12:14:00Z,Y,Y,clean,0,none,Y,y,4.4,VR2AR_548193_20211118_1.csv,NA
HHP-05,Head Harbour Passage,outer bay,548194,VR2AR,60658,A69-1601-60658,gate,November,bay,NA,NA,NA,NA,Groundskeeper,"Wilson, B.; Black, M.",44.95411,-66.92707,44° 57.246',-66° 55.624',44.95403,-66.9272,2021-05-06T16:41:00Z,2021-05-06T19:41:00Z,74,NA,69.9,2.5,69.2984,NA,L,adrift,NA,NA,NA,NA,NA,NA,NA,NA,NA,NA,NA,NA,NA,NA,NA,NA,NA,NA,NA,"detached on Oct 9th, 2021 - sync tag no longer heard - likely chaffed off as in high current location"
HHP-06,Head Harbour Passage,outer bay,547436,VR2AR,61900,A69-1601-61900,gate,November,bay,NA,NA,NA,NA,Groundskeeper,"Wilson, B.; Black, M.",44.95088,-66.92303,44° 57.053',-66° 55.382',44.95093,-66.92309,2021-05-06T16:38:00Z,2021-05-06T19:38:00Z,73,NA,93.9,2.5,93.3307,NA,y,recovered,Salar,"Wilson, B.; Black, M.; Lawrence, M.; English, G.",45.95168,-66.92155,NA,60,2021-11-17T13:14:00Z,2021-11-17T16:14:00Z,2021-11-17T16:57:00Z,2021-11-17T19:57:00Z,Y,Y,clean,0,none,Y,y,5.4,VR2AR_547436_20211117_1.csv,NA
HI-01,Passamaquoddy Bay,inner bay,104649,VR2W,NA,NA,gate,November,bay,NA,NA,NA,NA,Groundskeeper,"Wilson, B.; Black, M.",45.14217,-67.00184,45° 8.530',-67° 0.111',45.142,-67.0015,2021-05-07T12:10:00Z,2021-05-07T15:10:00Z,105,NA,13.5,0.8,12.891,NA,Y,recovered,Viola,"Black, M.; Wilson, B.",45.14229,-67.00654,725,15.4,2021-07-26T10:31:00Z,2021-07-26T13:31:00Z,2021-07-26T12:48:00Z,2021-07-26T15:48:00Z,Y,Y,clean,0,none,Y,y,0.5,VR2W_104649_20210726_1.csv,NA
HI-02,Passamaquoddy Bay,inner bay,108755,VR2W,NA,NA,gate,November,bay,NA,NA,NA,NA,Groundskeeper,"Wilson, B.; Black, M.",45.13569,-66.9957,45° 8.142',-66° 59.742',45.13562,-66.99578,2021-05-07T12:03:00Z,2021-05-07T15:03:00Z,104,NA,28,0.8,27.3831,NA,Y,recovered,Viola,"Black, M.; Wilson, B.",45.13589,-66.99525,726,23.5,2021-07-26T10:24:00Z,2021-07-26T13:24:00Z,2021-07-26T12:57:00Z,2021-07-26T15:57:00Z,Y,Y,clean,0,none,Y,y,0.7,VR2W_108755_20210726_1.csv,NA
HI-03,Passamaquoddy Bay,inner bay,108835,VR2W,NA,NA,gate,November,bay,NA,NA,NA,NA,Groundskeeper,"Wilson, B.; Black, M.",45.12979,-66.99526,45° 7.788',-66° 59.715',45.13043,-66.99505,2021-05-07T11:56:00Z,2021-05-07T14:56:00Z,103,NA,28.4,0.8,27.7544,NA,Y,recovered,Viola,"Black, M.; Wilson, B.",45.13055,-66.99626,727,25.6,2021-07-26T10:20:00Z,2021-07-26T13:20:00Z,2021-07-26T13:04:00Z,2021-07-26T16:04:00Z,Y,Y,clean,0,none,Y,y,0.5,VR2W_108835_20210726_1.csv,NA
HI-04,Passamaquoddy Bay,inner bay,109571,VR2W,NA,NA,gate,November,bay,NA,NA,NA,NA,Groundskeeper,"Wilson, B.; Black, M.",45.12444,-67.00639,45° 7.466',-67° 0.384',45.12468,-67.00636,2021-05-07T11:48:00Z,2021-05-07T14:48:00Z,102,NA,12,0.8,11.4036,NA,Y,recovered,Viola,"Black, M.; Wilson, B.",45.12473,-67.00151,728,13.9,2021-07-26T10:12:00Z,2021-07-26T13:12:00Z,2021-07-26T13:09:00Z,2021-07-26T16:09:00Z,Y,Y,clean,0,none,Y,y,0.8,VR2W_109571_20210726_1.csv,NA
HW-01,Limekiln Harbour,outer bay,124697,VR2W,NA,NA,point,November,weir,Connors,NA,NA,Eagle Island,Groundskeeper,"Wilson, B.; Black, M.",45.02389,-66.86777,45° 1.433',-66° 52.066',45.02365,-66.86737,2021-05-06T15:29:00Z,2021-05-06T18:29:00Z,68,NA,35.8,0.8,35.2304,NA,Y,recovered,lobster boat,fisherman,45.02365,-66.86737,na,NA,2022-01-06T12:00:00Z,2022-01-06T15:00:00Z,2022-01-07T11:24:00Z,2022-01-07T14:24:00Z,Y,Y,medium,20,jingle shells,Y,Y,0.9,VR2W_124697_20220107_1.csv,float not spotted on recovery attempts; seen as late as early November; recovered by fisherman on Jan 6th
HW-02,Head Harbour Passage,coastal,124699,VR2W,NA,NA,point,November,weir,Connors,NA,NA,Ship Head,Groundskeeper,"Wilson, B.; Black, M.",44.91321,-66.88863,44° 54.793',-66° 53.318',44.91311,-66.88821,2021-05-06T13:14:00Z,2021-05-06T16:14:00Z,51,NA,12.7,0.8,12.1251,NA,Y,recovered,Viola,"Black, M.; Wilson, B.",44.91318,-66.88791,74,30,2021-11-30T12:30:00Z,2021-11-30T15:30:00Z,2021-11-30T12:36:00Z,2021-11-30T15:36:00Z,Y,Y,light,10,hydrozoan,Y,Y,0.8,VR2W_124699_20211130_1.csv,NA
HW-03,The Wolves,coastal,124702,VR2W,NA,NA,point,November,weir,Connors,NA,NA,Paul's Cove,Eubalaena,"Wilson, B.; Black, M.",44.97757,-66.71221,44° 58.654',-66° 42.733',44.97745,-66.71253,2021-05-04T09:54:00Z,2021-05-04T12:54:00Z,28,20,20.2,0.8,19.5706,NA,y,recovered,Viola,"Black, M.; Wilson, B.; Bradford, H.",44.9763,-66.71302,8,17.8,2021-11-23T09:57:00Z,2021-11-23T12:57:00Z,2021-11-23T10:22:00Z,2021-11-23T13:22:00Z,Y,Y,medium,50,bryozoan,Y,y,0.7,VR2W_124702_20211123_1.csv,NA
HW-04,The Wolves,coastal,126630,VR2W,NA,NA,point,November,weir,Connors,NA,NA,Southern Cove,Eubalaena,"Wilson, B.; Black, M.",44.96708,-66.71148,44° 58.025',-66° 42.689',44.96708,-66.71152,2021-05-04T10:12:00Z,2021-05-04T13:12:00Z,29,5,2.7,0.8,2.11814,NA,y,recovered,Viola,"Black, M.; Wilson, B.; Bradford, H.",44.96698,-66.7107,9,18.2,2021-11-23T10:13:00Z,2021-11-23T13:13:00Z,2021-11-23T10:31:00Z,2021-11-23T13:31:00Z,Y,Y,light,20,jingle shells,Y,y,1,VR2W_126630_20211123_1.csv,NA
HW-05,Grand Manan,coastal,126636,VR2W,NA,NA,point,November,weir,Connors,NA,NA,Money Cove,Eubalaena,"Wilson, B.; Black, M.",44.77776,-66.82203,44° 46.666',-66° 49.322',44.77796,-66.82214,2021-05-04T13:58:00Z,2021-05-04T16:58:00Z,32,5,5.8,0.8,5.1992,NA,y,recovered,C&P,fisheries officers,44.77796,-66.82214,na,NA,2021-12-04T12:00:00Z,2021-12-04T15:00:00Z,2022-01-06T12:30:00Z,2022-01-06T15:30:00Z,y,y,medium,20,jingle shells,y,y,0.8,VR2W_126636_20220106_1.csv,NA
HW-06,Grand Manan,coastal,126639,VR2W,NA,NA,point,November,weir,Connors,NA,NA,Jubilee,Eubalaena,"Wilson, B.; Black, M.",44.77906,-66.74905,44° 46.744',-66° 44.943',44.778471,-66.750132,2021-05-04T13:10:00Z,2021-05-04T16:10:00Z,NA,30,32.2,0.8,31.5658,NA,y,recovered,C&P,fisheries officers,44.778471,-66.750132,na,NA,2021-12-04T13:00:00Z,2021-12-04T16:00:00Z,2022-01-06T12:48:00Z,2022-01-06T15:48:00Z,y,y,medium,20,jingle shells,y,y,0.8,VR2W_126639_20220106_1.csv,NA
LLP-I-01,Little L'etete Passage,inner bay,545684,VR2AR,60148,A69-1601-60148,gate,November,bay,NA,NA,NA,NA,Groundskeeper,"Wilson, B.; Black, M.",45.04086,-66.93968,45° 2.452',-66° 56.381',45.04067,-66.93962,2021-05-07T14:28:00Z,2021-05-07T17:28:00Z,113,NA,21.6,2.5,21.0194,NA,Y,recovered,Viola,"Black, M.; Wilson, B.",45.04053,-66.93912,665,NA,2021-07-05T13:05:00Z,2021-07-05T16:05:00Z,2021-07-05T13:50:00Z,2021-07-05T16:50:00Z,Y,Y,light,20,hydrozoan,Y,y,3.4,VR2AR_545684_20210705_1.csv,NA
LLP-I-02,Little L'etete Passage,inner bay,546382,VR2AR,60846,A69-1601-60846,gate,November,bay,NA,NA,NA,NA,Groundskeeper,"Wilson, B.; Black, M.",45.03931,-66.94215,45° 2.359',-66° 56.529',45.03934,-66.94204,2021-05-07T14:31:00Z,2021-05-07T17:31:00Z,114,NA,26.8,2.5,26.1889,NA,Y,recovered,Viola,"Black, M.; Wilson, B.",45.039516,-66.94185,76,NA,2021-11-30T13:43:00Z,2021-11-30T16:43:00Z,2021-12-10T10:26:00Z,2021-12-10T13:26:00Z,Y,Y,light,25,hydrozoan,Y,Y,6.6,VR2AR_546382_20211210_1.csv,NA
LLP-O-01,Little L'etete Passage,inner bay,546501,VR2AR,60965,A69-1601-60965,gate,November,bay,NA,NA,NA,NA,Groundskeeper,"Wilson, B.; Black, M.",45.03634,-66.93973,45° 2.180',-66° 56.384',45.03639,-66.93943,2021-05-07T14:33:00Z,2021-05-07T17:33:00Z,115,NA,16.4,2.5,15.8487,NA,Y,recovered,Viola,"Black, M.; Wilson, B.",45.03702,-66.93644,667,NA,2021-07-05T13:15:00Z,2021-07-05T16:15:00Z,2021-07-05T14:11:00Z,2021-07-05T17:11:00Z,Y,Y,clean,0,none,Y,y,2.7,VR2AR_546501_20210705_1.csv,NA
LLP-O-02,Little L'etete Passage,inner bay,546528,VR2AR,60992,A69-1601-60992,gate,November,bay,NA,NA,NA,NA,Groundskeeper,"Wilson, B.; Black, M.",45.03702,-66.93764,45° 2.221',-66° 56.258',45.03721,-66.93757,2021-05-07T14:34:00Z,2021-05-07T17:34:00Z,116,NA,28.8,2.5,28.2264,NA,Y,recovered,Viola,"Black, M.; Wilson, B.",45.03632,-66.93894,666,NA,2021-07-05T13:11:00Z,2021-07-05T16:11:00Z,2021-07-05T14:04:00Z,2021-07-05T17:04:00Z,Y,Y,light,20,hydrozoan,Y,y,3.5,VR2AR_546528_20210705_1.csv,NA
LN-01,Lubec Narrows,outer bay,546690,VR2AR,61154,A69-1601-61154,gate,November,bay,NA,NA,NA,NA,Groundskeeper,"Wilson, B.; Black, M.",44.86503,-66.98209,44° 51.901',-66° 58.925',44.86383,-66.98161,2021-05-06T11:30:00Z,2021-05-06T14:30:00Z,NA,NA,5.7,2.5,5.07203,NA,Y,recovered,Viola,"Black, M.; Wilson, B.",45.86495,-66.98178,69,7,2021-11-30T10:54:00Z,2021-11-30T13:54:00Z,2021-11-30T11:47:00Z,2021-11-30T14:47:00Z,Y,Y,medium,25,jingle shells,Y,Y,4.5,VR2AR_546690_20211130_1.csv,NA
LR-01,Maces Bay,coastal,108835,VR2W,NA,NA,gate,November,river,NA,NA,NA,NA,Salar,"Wilson, B.; Black, M.",45.14007,-66.49307,NA,NA,45.14002,-66.49302,2021-07-27T13:46:00Z,2021-07-27T16:46:00Z,729,5.8,4,0.8,3.4,NA,Y,recovered,Princecraft,"Black, M.; Wilson, B.",45.13988,-66.49283,79,NA,2021-12-03T11:49:00Z,2021-12-03T14:49:00Z,2021-12-03T16:25:00Z,2021-12-03T19:25:00Z,Y,Y,light,0,none,Y,Y,0.4,VR2W_108835_20211203_1.csv,NA
LR-01B,Maces Bay,coastal,547436,VR2AR,61901,A69-1601-61901,gate,April,river,NA,NA,NA,NA,Princecraft,"Wilson, B.; Black, M.",NA,NA,NA,NA,45.13988,-66.49294,2021-12-03T11:54:00Z,2021-12-03T14:54:00Z,80,NA,4,2.5,3.4,NA,L,NA,NA,NA,NA,NA,NA,NA,NA,NA,NA,NA,NA,NA,NA,NA,NA,NA,NA,NA,NA,NA
LR-02,Maces Bay,coastal,108755,VR2W,NA,NA,gate,November,river,NA,NA,NA,NA,Salar,"Wilson, B.; Black, M.",NA,NA,NA,NA,45.15033,-66.48711,2021-07-27T14:05:00Z,2021-07-27T17:05:00Z,730,5.9,1.2,0.8,0.6,NA,Y,recovered,Princecraft,"Black, M.; Wilson, B.",45.14985,-66.48722,78,NA,2021-12-03T11:41:00Z,2021-12-03T14:41:00Z,2021-12-03T16:21:00Z,2021-12-03T19:21:00Z,Y,Y,light,0,none,Y,y,0.4,VR2W_108755_20211203_1.csv,NA
MI-01,Passamaquoddy Bay,inner bay,133266,VR2W,NA,NA,gate,November,bay,NA,NA,NA,NA,Groundskeeper,"Wilson, B.; Black, M.",45.11198,-67.03344,45° 6.718',-67° 2.006',45.11214,-67.03323,2021-05-07T11:22:00Z,2021-05-07T14:22:00Z,98,NA,14.7,0.8,14.0961,NA,Y,recovered,Viola,"Black, M.; Wilson, B.",45.11208,-67.03343,NA,14.4,2021-07-26T09:45:00Z,2021-07-26T12:45:00Z,2021-07-26T13:30:00Z,2021-07-26T16:30:00Z,Y,Y,clean,0,none,Y,y,0.5,VR2W_133266_20210726_1.csv,NA
MI-02,Passamaquoddy Bay,inner bay,133267,VR2W,NA,NA,gate,November,bay,NA,NA,NA,NA,Groundskeeper,"Wilson, B.; Black, M.",45.11456,-67.02765,45° 6.873',-67° 1.659',45.11474,-67.0272,2021-05-07T11:28:00Z,2021-05-07T14:28:00Z,99,NA,19.1,0.8,18.4862,NA,Y,recovered,Viola,"Black, M.; Wilson, B.",45.11496,-67.02791,721,14.6,2021-07-26T09:51:00Z,2021-07-26T12:51:00Z,2021-07-26T13:24:00Z,2021-07-26T16:24:00Z,Y,Y,clean,0,none,Y,Y,0.6,VR2W_133267_20210726_1.csv,NA
MI-03,Passamaquoddy Bay,inner bay,133268,VR2W,NA,NA,gate,November,bay,NA,NA,NA,NA,Groundskeeper,"Wilson, B.; Black, M.",45.11711,-67.02193,45° 7.027',-67° 1.316',45.1171,-67.02221,2021-05-07T11:33:00Z,2021-05-07T14:33:00Z,100,NA,25.6,0.8,25.0077,NA,Y,recovered,Viola,"Black, M.; Wilson, B.",45.11725,-67.02246,722,22,2021-07-26T09:56:00Z,2021-07-26T12:56:00Z,2021-07-26T13:16:00Z,2021-07-26T16:16:00Z,Y,Y,clean,0,none,Y,y,0.5,VR2W_133268_20210726_1.csv,NA
MI-04,Passamaquoddy Bay,inner bay,133269,VR2W,NA,NA,gate,November,bay,NA,NA,NA,NA,Groundskeeper,"Wilson, B.; Black, M.",45.11966,-67.01622,45° 7.180',-67° 0.973',45.11988,-67.01579,2021-05-07T11:38:00Z,2021-05-07T14:38:00Z,101,NA,29,0.8,28.4087,NA,L,on bottom,NA,NA,NA,NA,723,NA,NA,NA,NA,NA,NA,NA,clean,0,none,NA,NA,NA,NA,"weld of rebar cage gave way under Viola, on bottom w/o surface float"
MR-B-01,Magaguadavic River,river,482654,VR2Tx,62654,A69-1601-62654,gate,July,river,NA,NA,NA,NA,Princecraft,"Wilson, B.; Black, M.",45.12645,-66.82384,45° 7.587',-66° 49.430',45.12638,-66.824,2021-04-27T13:56:00Z,2021-04-27T16:56:00Z,6,NA,1.1,0.8,0.51133,NA,Y,recovered,Salar,"Black, M.; Wilson, B.",45.12635,-66.8239,NA,3.3,2021-06-28T12:07:00Z,2021-06-28T15:07:00Z,2021-06-30T09:45:00Z,2021-06-30T12:45:00Z,Y,Y,light,0,none,Y,Y,0.9,VR2Tx_482654_20210630_1.csv,NA
MR-B-01B,Magaguadavic River,river,109571,VR2W,NA,NA,gate,November,river,NA,NA,NA,NA,Princecraft,"Wilson, B.; Black, M.",44.667051,-66.720175,44° 40.023',-66° 43.211',45.12651,-66.82368,2021-05-06T12:00:00Z,2021-05-06T15:00:00Z,NA,NA,11.8,0.8,11.224,NA,y,recovered,Viola,"Black, M.; Wilson, B.",45.16259,-66.98361,84,NA,2021-12-03T14:11:00Z,2021-12-03T17:11:00Z,2021-12-03T16:30:00Z,2021-12-03T19:30:00Z,Y,Y,light,0,none,Y,Y,0.5,VR2W_109571_20211203_1.csv,NA
MR-D-01,Magaguadavic River,river,482655,VR2Tx,62655,A69-1601-62655,gate,July,river,NA,NA,NA,NA,Princecraft,"Wilson, B.; Black, M.",45.13033,-66.82974,45° 7.820',-66° 49.784',45.13035,-66.82986,2021-05-12T12:19:00Z,2021-05-12T15:19:00Z,123,1,2,0.8,1.4,NA,Y,recovered,Princecraft,"Trudel, M.; Wilson, B.",45.13036,-66.82972,651,2.5,2021-06-29T11:29:00Z,2021-06-29T14:29:00Z,2021-06-30T09:28:00Z,2021-06-30T12:28:00Z,Y,Y,clean,0,none,Y,y,1.7,VR2Tx_482655_20210630_1.csv,NA
MR-D-02,Magaguadavic River,river,482656,VR2Tx,62656,A69-1601-62656,gate,July,river,NA,NA,NA,NA,Princecraft,"Wilson, B.; Black, M.",45.12824,-66.8303,45° 7.694',-66° 49.818',45.12837,-66.83038,2021-05-13T12:24:00Z,2021-05-13T15:24:00Z,124,1,2,0.8,1.4,NA,Y,recovered,Princecraft,"Trudel, M.; Wilson, B.",45.12845,-66.8304,650,2.5,2021-06-29T11:24:00Z,2021-06-29T14:24:00Z,2021-06-30T09:33:00Z,2021-06-30T12:33:00Z,Y,Y,clean,0,none,Y,y,1.5,VR2Tx_482656_20210630_1.csv,NA
MR-D-03,Magaguadavic River,estuary,482657,VR2Tx,62657,A69-1601-62657,gate,July,river,NA,NA,NA,NA,Princecraft,"Wilson, B.; Black, M.",45.12786,-66.82584,45° 7.671',-66° 49.551',45.128206,-66.826559,2021-04-27T13:51:00Z,2021-04-27T16:51:00Z,NA,1,1.2,0.8,0.6,NA,Y,recovered,Princecraft,"Trudel, M.; Wilson, B.",45.12833,-66.82667,655,1,2021-06-29T12:29:00Z,2021-06-29T15:29:00Z,2021-06-29T15:12:00Z,2021-06-29T18:12:00Z,Y,Y,clean,0,none,Y,Y,0.5,VR2Tx_482657_20210629_1.csv,"possibly moved further into gorge; almost grounded out at low water, in between a ledge - not likely great efficiency"
MR-I-01,Magaguadavic River,estuary,482658,VR2Tx,62658,A69-1601-62658,gate,July,river,NA,NA,NA,NA,Princecraft,"Wilson, B.; Black, M.",45.1236,-66.82967,45° 7.416',-66° 49.780',45.12355,-66.82967,2021-04-27T14:25:00Z,2021-04-27T17:25:00Z,9,NA,2.4,0.8,1.75365,NA,Y,recovered,Salar,"Black, M.; Wilson, B.",45.12356,-66.829580000000007,NA,3.2,2021-06-28T11:55:00Z,2021-06-28T14:55:00Z,2021-06-30T10:23:00Z,2021-06-30T13:23:00Z,Y,Y,clean,0,none,Y,Y,0.9,VR2Tx_482658_20210630_1.csv,NA
MR-I-02,Magaguadavic River,estuary,482659,VR2Tx,62659,A69-1601-62659,gate,July,river,NA,NA,NA,NA,Princecraft,"Wilson, B.; Black, M.",45.12071,-66.8363,45° 7.243',-66° 50.178',45.1212,-66.83616,2021-04-27T14:22:00Z,2021-04-27T17:22:00Z,8,1,1,0.8,0.4,NA,Y,recovered,Salar,"Black, M.; Wilson, B.",45.12125,-66.836,NA,4.8,2021-06-28T11:47:00Z,2021-06-28T14:47:00Z,2021-06-30T10:28:00Z,2021-06-30T13:28:00Z,Y,Y,light,0,barnacles,Y,Y,1.2,VR2Tx_482659_20210630_1.csv,NA
MR-I-03,Magaguadavic River,estuary,482661,VR2Tx,62661,A69-1601-62661,gate,July,river,NA,NA,NA,NA,Princecraft,"Wilson, B.; Black, M.",45.11931,-66.84371,45° 7.158',-66° 50.623',45.11969,-66.84387,2021-04-27T14:19:00Z,2021-04-27T17:19:00Z,7,NA,1.2,0.8,0.6,NA,Y,recovered,Salae,"Black, M.; Wilson, B.",45.119766,-66.84376,NA,4.9,2021-06-28T11:40:00Z,2021-06-28T14:40:00Z,2021-06-30T10:34:00Z,2021-06-30T13:34:00Z,Y,Y,light,0,barnacles,Y,Y,1.2,VR2Tx_482661_20210630_1.csv,NA
MR-I-04,Magaguadavic River,estuary,482662,VR2Tx,62662,A69-1601-62662,gate,July,river,NA,NA,NA,NA,Princecraft,"Wilson, B.; Black, M.",45.12145,-66.85099,45° 7.287',-66° 51.059',45.12145,-66.85098,2021-04-27T12:50:00Z,2021-04-27T15:50:00Z,NA,NA,3.8,0.8,3.22226,NA,Y,recovered,Salar,"Black, M.; Wilson, B.",45.12165,-66.851133,NA,4.5,2021-06-28T12:39:00Z,2021-06-28T15:39:00Z,2021-06-30T10:49:00Z,2021-06-30T13:49:00Z,Y,Y,light,0,barnacles,Y,Y,1.2,VR2Tx_482662_20210630_1.csv,NA
MR-I-05,Magaguadavic River,estuary,482664,VR2Tx,62664,A69-1601-62664,gate,July,river,NA,NA,NA,NA,Princecraft,"Wilson, B.; Black, M.",45.12046,-66.85858,45° 7.227',-66° 51.515',45.12047,-66.8585,2021-04-27T12:44:00Z,2021-04-27T15:44:00Z,5,NA,1.1,0.8,0.5,NA,Y,recovered,Salar,"Black, M.; Wilson, B.",45.1205,-66.85838,NA,3.9,2021-06-28T12:46:00Z,2021-06-28T15:46:00Z,2021-06-30T10:55:00Z,2021-06-30T13:55:00Z,Y,Y,clean,0,none,Y,Y,1.3,VR2Tx_482664_20210630_1.csv,NA
MR-I-06,Magaguadavic River,estuary,482665,VR2Tx,62665,A69-1601-62665,gate,July,river,NA,NA,NA,NA,Princecraft,"Wilson, B.; Black, M.",45.12293,-66.86564,45° 7.376',-66° 51.938',45.12278,-66.8658,2021-04-27T12:38:00Z,2021-04-27T15:38:00Z,4,NA,1.4,0.8,0.8,NA,Y,recovered,Salar,"Black, M.; Wilson, B.",45.1228,-66.86578,NA,3.7,2021-06-28T12:52:00Z,2021-06-28T15:52:00Z,2021-06-30T11:02:00Z,2021-06-30T14:02:00Z,Y,Y,clean,0,none,Y,Y,1.1,VR2Tx_482665_20210630_1.csv,NA
MR-M-01,Magaguadavic River,estuary,482666,VR2Tx,62666,A69-1601-62666,gate,July,river,NA,NA,NA,NA,Princecraft,"Wilson, B.; Black, M.",45.12006,-66.87308,45° 7.204',-66° 52.385',45.12006,-66.87316,2021-04-27T12:30:00Z,2021-04-27T15:30:00Z,3,NA,2.2,0.8,1.6274,NA,Y,recovered,Salar,"Black, M.; Wilson, B.",45.1166,-66.879283,NA,4,2021-06-28T13:10:00Z,2021-06-28T16:10:00Z,2021-06-30T11:15:00Z,2021-06-30T14:15:00Z,Y,Y,clean,0,none,Y,Y,0.8,VR2Tx_482666_20210630_1.csv,NA
MR-M-02,Magaguadavic River,estuary,482667,VR2Tx,62667,A69-1601-62667,gate,July,river,NA,NA,NA,NA,Princecraft,"Wilson, B.; Black, M.",45.11656,-66.87942,45° 6.993',-66° 52.765',45.11657,-66.87933,2021-04-27T12:24:00Z,2021-04-27T15:24:00Z,2,NA,2.3,0.8,1.67112,NA,Y,recovered,Salar,"Black, M.; Wilson, B.",45.12015,-66.87245,NA,3.4,2021-06-28T13:01:00Z,2021-06-28T16:01:00Z,2021-06-30T11:18:00Z,2021-06-30T14:18:00Z,Y,Y,clean,0,none,Y,Y,0.7,VR2Tx_482667_20210630_1.csv,NA
MR-M-03,Magaguadavic River,estuary,484577,VR2Tx,62014,A69-1601-62014,gate,July,river,NA,NA,NA,NA,Princecraft,"Wilson, B.; Black, M.",45.1125,-66.88573,45° 6.750',-66° 53.144',45.11239,-66.88557,2021-04-27T12:16:00Z,2021-04-27T15:16:00Z,1,NA,2.2,0.8,1.6,NA,Y,recovered,Salar,"Black, M.; Wilson, B.",45.11251,-66.88563,NA,4,2021-06-28T11:02:00Z,2021-06-28T14:02:00Z,2021-06-30T11:22:00Z,2021-06-30T14:22:00Z,Y,Y,clean,0,none,Y,Y,0.9,VR2Tx_484577_20210630_1.csv,sunken into mud
MR-O-01,Magaguadavic River,estuary,484578,VR2Tx,62031,A69-1601-62031,gate,July,river,NA,NA,NA,NA,Princecraft,"Wilson, B.; Black, M.",45.10982,-66.89468,45° 6.589',-66° 53.681',45.10982,-66.89478,2021-04-27T11:50:00Z,2021-04-27T14:50:00Z,213,NA,9.4,0.8,8.80112,NA,Y,recovered,Princecraft,"Trudel, M.; Wilson, B.",45.10988,-66.89471,673,8.5,2021-07-06T11:30:00Z,2021-07-06T14:30:00Z,2021-07-06T11:36:00Z,2021-07-06T14:36:00Z,Y,Y,clean,0,urchins,Y,Y,1,VR2Tx_484578_20210706_1.csv,NA
MR-O-01B,Magaguadavic River,estuary,124674,VR2W,NA,NA,gate,November,river,NA,NA,NA,NA,Viola,"Wilson, B.; Black, M.",45.10982,-66.894679,45° 6.5890',-66° 53.681',45.10976,-66.89475,2021-07-06T12:39:00Z,2021-07-06T15:39:00Z,678,12.7,10.9,0.8,10.306,NA,y,recovered,Viola,"Black, M.; Wilson, B.",45.10922,-66.8946,21,21.4,2021-11-24T11:07:00Z,2021-11-24T14:07:00Z,2021-11-24T11:30:00Z,2021-11-24T14:30:00Z,Y,Y,clean,0,none,Y,Y,0.4,VR2W_124674_20211124_1.csv,NA
MR-O-01C,Passamaquoddy Bay,estuary,480909,VR2Tx,62909,A69-1601-62909,gate,April,river,NA,NA,NA,NA,Viola,"Wilson, B.; Black, M.",45.10982,-66.894679,NA,NA,45.11438,-66.90001,2021-11-24T11:10:00Z,2021-11-24T14:10:00Z,20,NA,16.3,0.8,15.7008,NA,y,recovered,Salar,"Black, M.; Wilson, B.; English, G.; Acheson, C.",45.119,-66.9025,23,NA,2022-05-25T12:16:00Z,2022-05-25T15:16:00Z,2022-05-25T16:17:00Z,2022-05-25T19:17:00Z,Y,Y,clean,0,none,Y,Y,NA,VR2Tx_480909_20220525_1.csv,NA
MR-O-02B,Magaguadavic River,estuary,124675,VR2W,NA,NA,gate,November,river,NA,NA,NA,NA,Viola,"Wilson, B.; Black, M.",45.115579,-66.901,45° 6.9348',-66° 54.06',45.11583,-66.90104,2021-07-06T12:47:00Z,2021-07-06T15:47:00Z,679,13.8,15.8,0.8,15.1941,NA,y,recovred,Viola,"Black, M.; Wilson, B.",45.11545,-66.9009,19,13.1,2021-11-24T10:56:00Z,2021-11-24T13:56:00Z,2021-11-24T11:07:00Z,2021-11-24T14:07:00Z,Y,Y,clean,0,none,Y,Y,1.3,VR2W_124675_20211124_2.csv,station entered as MR-O-02B in VUE; exported new file as .csv with corrected station
MR-U-01,Magaguadavic River,river,484579,VR2Tx,62038,A69-1601-62038,gate,July,river,NA,NA,NA,NA,Princecraft,"Wilson, B.; Black, M.",45.1422,-66.83351,45° 8.532',-66° 50.011',45.14092,-66.83315,2021-04-27T15:20:00Z,2021-04-27T18:20:00Z,125,1,2,0.8,1.4,NA,Y,recovered,Princecraft,"Trudel, M.; Wilson, B.",45.14103,-66.83313,654,2.5,2021-06-29T11:47:00Z,2021-06-29T14:47:00Z,2021-06-29T16:03:00Z,2021-06-29T19:03:00Z,Y,Y,clean,0,none,Y,y,0.6,VR2Tx_484579_20210629_1.csv,NA
MR-U-02,Magaguadavic River,river,484580,VR2Tx,62081,A69-1601-62081,gate,July,river,NA,NA,NA,NA,Princecraft,"Wilson, B.; Black, M.",45.13581,-66.82456,45° 8.149',-66° 49.473',45.13503,-66.82466,2021-04-27T15:27:00Z,2021-04-27T18:27:00Z,10,1,2,0.8,1.4,NA,Y,recovered,Princecraft,"Trudel, M.; Wilson, B.",45.13507,-66.82469,649,2.5,2021-06-29T11:15:00Z,2021-06-29T14:15:00Z,2021-06-30T10:15:00Z,2021-06-30T13:15:00Z,Y,Y,clean,0,none,Y,y,4.2,VR2Tx_484580_20210630_1.csv,NA
MR-U-03,Magaguadavic River,river,484581,VR2Tx,62082,A69-1601-62082,gate,July,river,NA,NA,NA,NA,Princecraft,"Wilson, B.; Black, M.",45.13202,-66.82256,45° 7.921',-66° 49.353',45.1318,-66.82265,2021-04-27T15:32:00Z,2021-04-27T18:32:00Z,11,1,2,0.8,1.4,NA,Y,recovered,Princecraft,"Trudel, M.; Wilson, B.",45.13186,-66.82254,653,2.5,2021-06-29T11:36:00Z,2021-06-29T14:36:00Z,2021-06-30T10:08:00Z,2021-06-30T13:08:00Z,Y,Y,clean,0,none,Y,y,3.1,VR2Tx_484581_20210630_1.csv,NA
MR-U-04,Magaguadavic River,river,484582,VR2Tx,62083,A69-1601-62083,gate,July,river,NA,NA,NA,NA,Princecraft,"Wilson, B.; Black, M.",45.13088,-66.82601,45° 7.853',-66° 49.561',45.13074,-66.82584,2021-04-27T15:36:00Z,2021-04-27T18:36:00Z,12,1,2,0.8,1.4,NA,Y,recovered,Princecraft,"Trudel, M.; Wilson, B.",45.13069,-66.82585,652,2.5,2021-06-29T11:32:00Z,2021-06-29T14:32:00Z,2021-06-30T09:59:00Z,2021-06-30T12:59:00Z,Y,Y,clean,0,none,Y,y,3.8,VR2Tx_484582_20210630_1.csv,NA
NH-01,Passamaquoddy Bay,inner bay,108829,VR2W,NA,NA,point,November,cove,NA,NA,NA,NA,Salar,"Wilson, B.; Black, M.; Lawrence, M.; English, G.",44.98199,-67.00785,NA,NA,44.98255,-67.00909,2021-09-17T12:25:00Z,2021-09-17T15:25:00Z,NA,NA,6.5,0.8,5.9451,NA,Y,recovered,Salar,"Wilson, B.; Black, M.; Lawrence, M.; English, G.",44.9823,-67.00915,NA,8,2021-11-17T14:26:00Z,2021-11-17T17:26:00Z,2021-11-18T08:37:00Z,2021-11-18T11:37:00Z,Y,Y,clean,0,none,Y,y,0.2,VR2W_108829_20211118_1.csv,NA
NR-01,Maces Bay,coastal,134761,VR2W,NA,NA,point,November,beach,NA,NA,NA,NA,Eubalaena,"Wilson, B.; Black, M.",45.13083,-66.53905,45° 7.850',-66° 32.343',45.13071,-66.53903,2021-05-04T08:47:00Z,2021-05-04T11:47:00Z,26,7,7.4,0.8,6.7903,NA,L,on bottom,NA,NA,NA,NA,NA,NA,NA,NA,NA,NA,NA,NA,NA,NA,NA,NA,NA,NA,NA,NA
NR-02,Maces Bay,coastal,134762,VR2W,NA,NA,point,November,beach,NA,NA,NA,NA,Eubalaena,"Wilson, B.; Black, M.",45.13022,-66.531720000000007,45° 7.813',-66° 31.903',45.12994,-66.53176,2021-05-04T08:56:00Z,2021-05-04T11:56:00Z,27,7,7.2,0.8,6.56563,NA,N,NA,NA,NA,NA,NA,NA,NA,NA,NA,NA,NA,NA,NA,NA,NA,NA,NA,NA,NA,NA,NA
NWH-01,Head Harbour Passage,outer bay,108831,VR2W,NA,NA,point,November,cove,NA,NA,NA,NA,Salar,"Wilson, B.; Black, M.; Lawrence, M.; English, G.",44.98499,-66.94989,NA,NA,44.98569,-66.951344,2021-09-17T13:25:00Z,2021-09-17T16:25:00Z,NA,NA,3.2,0.8,2.6,NA,Y,recovered,Salar,"Wilson, B.; Black, M.; Lawrence, M.; English, G.",44.9823,-67.00915,NA,8,2021-11-17T11:35:00Z,2021-11-17T14:35:00Z,2021-11-18T08:50:00Z,2021-11-18T11:50:00Z,Y,Y,clean,0,none,Y,y,0.2,VR2W_108831_20211118_1.csv,NA
PB-01,Passamaquoddy Bay,estuary,124674,VR2W,NA,NA,gate,November,river,NA,NA,NA,NA,Groundskeeper,"Wilson, B.; Black, M.",45.13068,-66.90888,45° 7.841',-66° 54.533',45.13086,-66.90904,2021-05-07T13:23:00Z,2021-05-07T16:23:00Z,109,NA,9.4,0.8,8.82739,NA,Y,recovered,Viola,"Black, M.; Wilson, B.",45.13102,-66.90944,677,9.6,2021-07-06T11:57:00Z,2021-07-06T14:57:00Z,2021-07-06T12:04:00Z,2021-07-06T15:04:00Z,Y,Y,clean,0,none,Y,y,0.6,VR2W_124674_20210706_1.csv,NA
PB-02,Passamaquoddy Bay,estuary,124675,VR2W,NA,NA,gate,November,river,NA,NA,NA,NA,Groundskeeper,"Wilson, B.; Black, M.",45.1262,-66.90894,45° 7.572',-66° 54.537',45.1265,-66.90941,2021-05-07T13:32:00Z,2021-05-07T16:32:00Z,110,NA,10.3,0.8,9.6821,NA,Y,recovered,Viola,"Black, M.; Wilson, B.",45.12655,-66.90955,676,10.9,2021-07-06T11:51:00Z,2021-07-06T14:51:00Z,2021-07-06T12:18:00Z,2021-07-06T15:18:00Z,Y,Y,clean,0,barnacles,Y,y,0.5,VR2W_124675_20210706_1.csv,NA
PB-03,Passamaquoddy Bay,estuary,124676,VR2W,NA,NA,gate,November,river,NA,NA,NA,NA,Groundskeeper,"Wilson, B.; Black, M.",45.12188,-66.90901,45° 7.313',-66° 54.540',45.12159,-66.909,2021-05-07T13:39:00Z,2021-05-07T16:39:00Z,111,NA,13.2,0.8,12.6424,NA,Y,recovered,Viola,"Black, M.; Wilson, B.",45.12165,-66.90932,675,13.8,2021-07-06T11:44:00Z,2021-07-06T14:44:00Z,2021-07-06T12:27:00Z,2021-07-06T15:27:00Z,Y,Y,clean,0,barnacles,Y,y,0.5,VR2W_124676_20210706_1.csv,NA
PB-04,Passamaquoddy Bay,estuary,124677,VR2W,NA,NA,gate,November,river,NA,NA,NA,NA,Groundskeeper,"Wilson, B.; Black, M.",45.11771,-66.90907,45° 7.063',-66° 54.544',45.11793,-66.90957,2021-05-07T13:46:00Z,2021-05-07T16:46:00Z,112,NA,15.5,0.8,14.9495,NA,Y,recovered,Viola,"Black, M.; Wilson, B.",45.11803,-66.91011,674,19,2021-07-06T11:39:00Z,2021-07-06T14:39:00Z,2021-07-06T12:32:00Z,2021-07-06T15:32:00Z,Y,Y,light,0,barnacles,Y,y,0.5,VR2W_124677_20210706_1.csv,NA
QN-01,Quoddy Narrows,outer bay,548875,VR2AR,61339,A69-1601-61339,gate,November,bay,NA,NA,NA,NA,Groundskeeper,"Wilson, B.; Black, M.",44.8194,-66.94785,44° 49.164',-66° 56.871',44.81921,-66.94785,2021-05-06T11:54:00Z,2021-05-06T14:54:00Z,47,NA,10.9,2.5,10.3,NA,Y,recovered,Viola,"Black, M.; Wilson, B.",44.81905,-66.94753,70,NA,2021-11-30T11:18:00Z,2021-11-30T14:18:00Z,2021-12-10T13:42:00Z,2021-12-10T16:42:00Z,Y,Y,light,10,hydrozoan,Y,Y,3.9,VR2AR_548875_20211210_1.csv,NA
QN-02,Quoddy Narrows,outer bay,548876,VR2AR,61340,A69-1601-61340,gate,November,bay,NA,NA,NA,NA,Groundskeeper,"Wilson, B.; Black, M.",44.82261,-66.94306,44° 49.357',-66° 56.584',44.82244,-66.9431,2021-05-06T12:03:00Z,2021-05-06T15:03:00Z,48,NA,8.3,2.5,7.66839,NA,Y,recovered,Viola,"Black, M.; Wilson, B.",44.82218,-66.94266,71,NA,2021-11-30T11:24:00Z,2021-11-30T14:24:00Z,2021-12-10T14:02:00Z,2021-12-10T17:02:00Z,Y,Y,light,10,hydrozoan,Y,Y,4.4,VR2AR_548876_20211210_1.csv,NA
QN-03,Quoddy Narrows,outer bay,548877,VR2AR,61341,A69-1601-61341,gate,November,bay,NA,NA,NA,NA,Groundskeeper,"Wilson, B.; Black, M.",44.82582,-66.93828,44° 49.549',-66° 56.296',44.8259,-66.93818,2021-05-06T12:06:00Z,2021-05-06T15:06:00Z,49,NA,13.1,2.5,12.4795,NA,Y,recovered,Viola,"Black, M.; Wilson, B.",44.82405,-66.94753,72,NA,2021-11-30T11:31:00Z,2021-11-30T14:31:00Z,2021-12-10T13:48:00Z,2021-12-10T16:48:00Z,Y,Y,light,10,hydrozoan,Y,Y,3.9,VR2AR_548877_20211210_1.csv,NA
QN-04,Quoddy Narrows,outer bay,548878,VR2AR,61342,A69-1601-61342,gate,November,bay,NA,NA,NA,NA,Groundskeeper,"Wilson, B.; Black, M.",44.82908,-66.93343,44° 49.745',-66° 56.006',44.82922,-66.93343,2021-05-06T12:09:00Z,2021-05-06T15:09:00Z,50,NA,7.8,2.5,7.24873,NA,Y,recovered,Viola,"Black, M.; Wilson, B.",44.82917,-66.93345,73,9.5,2021-11-30T11:38:00Z,2021-11-30T14:38:00Z,2021-12-10T13:54:00Z,2021-12-10T16:54:00Z,Y,Y,light,25,jingle shells,Y,Y,2.8,VR2AR_548878_20211210_1.csv,NA
SAH-01,Passamaquoddy Bay,inner bay,127577,VR2W,NA,NA,gate,November,bay,NA,NA,NA,NA,Groundskeeper,"Wilson, B.; Black, M.",45.07138,-67.06535,45° 4.283',-67° 3.921',45.07151,-67.06287,2021-05-07T10:11:00Z,2021-05-07T13:11:00Z,93,NA,5.6,0.8,4.98477,NA,y,recovered,Viola,"Black, M.; Wilson, B.",45.07136,-67.06253,26,6.1,2021-11-24T12:50:00Z,2021-11-24T15:50:00Z,2021-11-24T13:00:00Z,2021-11-24T16:00:00Z,Y,Y,light,10,hydrozoan,Y,Y,0.7,VR2W_127577_20211124_1.csv,NA
SAH-02,Passamaquoddy Bay,inner bay,127578,VR2W,NA,NA,gate,November,bay,NA,NA,NA,NA,Groundskeeper,"Wilson, B.; Black, M.",45.0678,-67.05138,45° 4.068',-67° 3.083',45.06914,-67.04938,2021-05-07T10:19:00Z,2021-05-07T13:19:00Z,94,NA,4.8,0.8,4.1848,NA,Y,recovered,Viola,"Black, M.; Wilson, B.",45.06905,-67.04973,25,5.3,2021-11-24T12:40:00Z,2021-11-24T15:40:00Z,2021-11-24T13:08:00Z,2021-11-24T16:08:00Z,Y,Y,clean,0,none,Y,Y,0.8,VR2W_127578_20211124_1.csv,NA
SCR-B-01,Saint Croix River,estuary,123514,VR2W,NA,NA,gate,November,river,NA,NA,NA,NA,shore,"Wilson, B.; Black, M.",NA,NA,NA,NA,45.18992,-67.26706,2021-06-22T10:42:00Z,2021-06-22T13:42:00Z,570,1,1.7,0.8,1.09514,NA,Y,recovered,Salar,"Black, M.; Wilson, B.",45.19003,-67.26707,626,1,2021-06-25T10:25:00Z,2021-06-25T13:25:00Z,2021-06-25T10:06:00Z,2021-06-25T13:06:00Z,Y,Y,clean,0,none,Y,Y,0.2,VR2W_123514_20210625_2.csv,tied to wharf; station entered as SCR-I-00A in VUE; exported new file as .csv with corrected station
SCR-B-01B,Saint Croix River,estuary,123514,VR2W,NA,NA,gate,November,river,NA,NA,NA,NA,shore,"Wilson, B.; Black, M.",NA,NA,NA,NA,45.1914,-67.27421,2021-06-25T10:47:00Z,2021-06-25T13:47:00Z,NA,2,2,0.8,1.4,position approximate,Y,recovered,Salar,"Black, M.; Wilson, B.",45.191160000000004,-67.2746,NA,NA,2021-12-01T10:59:00Z,2021-12-01T13:59:00Z,2021-12-03T16:36:00Z,2021-12-03T19:36:00Z,Y,Y,clean,0,none,Y,y,1.4,VR2W_123514_20211203_2.csv,"deployed off wharf, float and line fouled, barely afloat - retreived at low, slack; station entered as SCR-I-00A in VUE; exported new file as .csv with corrected station"
SCR-D-01,Saint Croix River,river,123514,VR2W,NA,NA,gate,November,river,NA,NA,NA,NA,shore,"Wilson, B.; Black, M.",NA,NA,NA,NA,45.1765,-67.294,2021-06-15T13:35:00Z,2021-06-15T16:35:00Z,NA,NA,2,0.8,1.4,"many boulders, noisy environment",y,recovered,shore,"Black, M.; Wilson, B.",45.1763,-67.29432,529,1,2021-06-19T16:45:00Z,2021-06-19T19:45:00Z,2021-06-22T08:38:00Z,2021-06-22T11:38:00Z,Y,Y,clean,0,none,Y,y,0,VR2W_123514_20210622_1.csv,below dam
SCR-I-01,Saint Croix River,estuary,106547,VR2W,NA,NA,gate,November,river,NA,NA,NA,NA,Princecraft,"Wilson, B.; Black, M.",45.1717,-67.24197,45° 10.302',-67° 14.518',45.17161,-67.24128,2021-05-03T12:12:00Z,2021-05-03T15:12:00Z,23,NA,3.1,0.8,2.48098,NA,Y,recovered,Salar,"Black, M.; Wilson, B.",45.17115,-67.24055,990,9.8,2021-11-19T13:04:00Z,2021-11-19T16:04:00Z,2021-11-22T12:19:00Z,2021-11-22T15:19:00Z,Y,Y,heavy,70,barnacles,Y,y,2.1,VR2W_106547_20211122_2.csv,station entered as SCR-I-02 in VUE; exported new file as .csv with corrected station
SCR-I-01B,Saint Croix River,estuary,548190,VR2AR,60654,A69-1601-60654,gate,April,river,NA,NA,NA,NA,Salar,"Wilson, B.; Black, M.",NA,NA,NA,NA,45.1736,-67.24353,2021-11-19T13:19:00Z,2021-11-19T16:19:00Z,991,9.1,3.2,2.5,2.6,NA,Y,recovered,Salar,"Black, M.; Wilson, B., English, G.",45.1736,-67.24353,11,NA,2022-05-11T11:12:00Z,2022-05-11T14:12:00Z,2022-05-11T14:13:00Z,2022-05-11T17:13:00Z,Y,Y,light,0,none,Y,Y,NA,VR2AR_548190_20220511_1.csv,NA
SCR-M-01,Saint Croix River,estuary,480909,VR2Tx,62909,A69-1601-62909,gate,November,river,NA,NA,NA,NA,Princecraft,"Wilson, B.; Black, M.",45.16421,-67.1649,45° 9.853',-67° 9.894',45.16429,-67.16446,2021-05-03T12:29:00Z,2021-05-03T15:29:00Z,24,NA,10.6,0.8,9.9869,NA,y,recovered,Salar,"Black, M.; Wilson, B.",45.16405,-67.16325,992,14.5,2021-11-19T13:39:00Z,2021-11-19T16:39:00Z,2021-11-19T15:55:00Z,2021-11-19T18:55:00Z,Y,Y,heavy,10,ciona,Y,y,4.5,VR2Tx_480909_20211119_1.csv,NA
SCR-M-02,Saint Croix River,estuary,108826,VR2W,NA,NA,gate,November,river,NA,NA,NA,NA,Eubalaena,"Wilson, B.; Black, M.",45.12283,-67.13278,NA,NA,45.12332,-67.1344,2021-09-17T11:29:00Z,2021-09-17T14:29:00Z,753,NA,3.9,0.8,3.311,NA,Y,recovered,Salar,"Black, M.; Wilson, B.",45.12332,-67.1344,NA,NA,2021-11-19T14:30:00Z,2021-11-19T17:30:00Z,2021-11-19T16:04:00Z,2021-11-19T19:04:00Z,Y,Y,light,0,none,Y,y,0.2,VR2W_108826_20211119_1.csv,NA
SCR-O-01,Saint Croix River,estuary,101362,VR2W,NA,NA,gate,November,river,NA,NA,NA,NA,Groundskeeper,"Wilson, B.; Black, M.",45.07811,-67.10349,45° 4.687',-67° 6.209',45.07793,-67.10369,2021-05-07T09:54:00Z,2021-05-07T12:54:00Z,92,NA,18.9,0.8,18.3103,NA,Y,recovered,Salar,"Black, M.; Wilson, B.",45.07793,-67.10369,NA,NA,2021-12-01T14:30:00Z,2021-12-01T17:30:00Z,2021-12-03T16:59:00Z,2021-12-03T19:59:00Z,Y,Y,light,50,ciona,Y,y,1.3,VR2W_101362_20211203_1.csv,"float and line fouled, barely afloat - retreived at low, slack"
SCR-O-02,Saint Croix River,estuary,101365,VR2W,NA,NA,gate,November,river,NA,NA,NA,NA,Groundskeeper,"Wilson, B.; Black, M.",45.07874,-67.09846,45° 4.724',-67° 5.907',45.07891,-67.09892,2021-05-07T09:52:00Z,2021-05-07T12:52:00Z,91,NA,29.3,0.8,28.7178,NA,Y,recovered,Salar,"Black, M.; Wilson, B.",45.07891,-67.09892,NA,NA,2021-12-01T14:10:00Z,2021-12-01T17:10:00Z,2021-12-03T17:02:00Z,2021-12-03T20:02:00Z,Y,Y,light,50,ciona,Y,y,1.2,VR2W_101365_20211203_1.csv,"float and line fouled, barely afloat - retreived at low, slack"
SCR-O-03,Saint Croix River,estuary,106527,VR2W,NA,NA,gate,November,river,NA,NA,NA,NA,Groundskeeper,"Wilson, B.; Black, M.",45.07941,-67.09296,45° 4.765',-67° 5.578',45.07935,-67.09274,2021-05-07T09:45:00Z,2021-05-07T12:45:00Z,90,NA,18.5,0.8,17.862,NA,Y,recovered,Viola,"Black, M.; Wilson, B.",45.07945,-67.09266,38,13.6,2021-11-26T08:44:00Z,2021-11-26T11:44:00Z,2021-12-13T12:02:00Z,2021-12-13T15:02:00Z,Y,Y,clean,0,none,Y,Y,2.3,VR2W_106527_20211213_1.csv,NA
SCR-O-04,Saint Croix River,estuary,106545,VR2W,NA,NA,gate,November,river,NA,NA,NA,NA,Groundskeeper,"Wilson, B.; Black, M.",45.08009,-67.08752,45° 4.805',-67° 5.251',45.08026,-67.0872,2021-05-07T09:41:00Z,2021-05-07T12:41:00Z,89,NA,13,0.8,12.3898,NA,Y,recovered,Viola,"Black, M.; Wilson, B.",45.07995,-67.0871,37,11.3,2021-11-26T08:36:00Z,2021-11-26T11:36:00Z,2021-12-13T12:18:00Z,2021-12-13T15:18:00Z,Y,Y,clean,10,ciona,Y,Y,2.3,VR2W_106545_20211213_1.csv,NA
SCR-U-01,Saint Croix River,river,123515,VR2W,NA,NA,gate,July,river,NA,NA,NA,NA,shore,"Wilson, B.; Black, M.",45.18455,-67.29147,NA,NA,45.18455,-67.29147,2021-06-15T13:13:00Z,2021-06-15T16:13:00Z,na,NA,2,0.8,1.4,redeployed,y,recovered,shore,"Black, M.; Wilson, B.",45.18454,-67.2914,709,NA,2021-07-08T09:43:00Z,2021-07-08T12:43:00Z,2021-07-08T11:25:00Z,2021-07-08T14:25:00Z,Y,Y,clean,0,none,Y,Y,0.8,VR2W_123515_20210708_2.csv,river bend; station entered as SCR-I-00 in VUE; exported new file as .csv with corrected station
SCR-U-02,Saint Croix River,river,482652,VR2Tx,62652,A69-1601-62652,gate,July,river,NA,NA,NA,NA,from shore,"Wilson, B.; Black, M.",45.18104,-67.29134,45° 10.863',-67° 17.480',45.18949,-67.28677,2021-06-15T12:14:00Z,2021-06-15T15:13:00Z,NA,NA,1.5,0.8,0.9,NA,Y,recovered,shore,"Black, M.; Wilson, B.",45.18944,-67.28677,708,NA,2021-07-08T08:51:00Z,2021-07-08T11:51:00Z,2021-07-08T11:04:00Z,2021-07-08T14:04:00Z,Y,Y,clean,0,none,Y,y,0.9,VR2Tx_482652_20210708_2.csv,Dover Hill park; station entered as SCR-I-01 in VUE; exported new file as .csv with corrected station
SHO-01,Head Harbour Passage,outer bay,122376,VR2W,NA,NA,point,November,seal haul-out,NA,NA,NA,NA,Groundskeeper,"Wilson, B.; Black, M.",45.03267,-66.90871,45° 1.960',-66° 54.522',45.03205,-66.91198,2021-05-06T17:39:00Z,2021-05-06T20:39:00Z,80,NA,12.2,0.8,11.6101,NA,Y,recovered,Salar,"Black, M.; Wilson, B.",45.0311,-66.91239,na,7.2,2021-11-27T13:30:00Z,2021-11-27T16:30:00Z,2021-12-13T12:14:00Z,2021-12-13T15:14:00Z,Y,Y,light,0,hydrozoan,Y,Y,1.2,VR2W_122376_20211213_1.csv,NA
SHO-02,Head Harbour Passage,outer bay,122378,VR2W,NA,NA,point,November,seal haul-out,NA,NA,NA,NA,Groundskeeper,"Wilson, B.; Black, M.",45.00091,-66.90305,45° 0.055',-66° 54.183',45.00162,-66.90353,2021-05-06T15:54:00Z,2021-05-06T18:54:00Z,69,NA,6.1,0.8,5.48723,NA,y,recovered,Salar,"Black, M.; Bradford, H.",45.00153,-66.90338,28,4.7,2021-11-26T09:44:00Z,2021-11-26T12:44:00Z,2021-11-26T09:30:00Z,2021-11-26T12:30:00Z,Y,Y,light,40,ulva,Y,Y,0.8,VR2W_122378_20211126_1.csv,NA
SHO-03,Head Harbour Passage,outer bay,122379,VR2W,NA,NA,point,November,seal haul-out,NA,NA,NA,NA,Groundskeeper,"Wilson, B.; Black, M.",44.97769,-66.90896,44° 58.661',-66° 54.538',44.97754,-66.90992,2021-05-06T16:11:00Z,2021-05-06T19:11:00Z,70,NA,6.5,0.8,5.92309,NA,L,sunken,NA,NA,NA,NA,NA,NA,NA,NA,NA,NA,NA,NA,NA,NA,NA,NA,NA,NA,NA,float not spotted on recovery in early December
SHO-04,Head Harbour Passage,outer bay,122380,VR2W,NA,NA,point,November,seal haul-out,NA,NA,NA,NA,Groundskeeper,"Wilson, B.; Black, M.",44.9635,-66.91975,44° 57.810',-66° 55.185',44.96298,-66.92021,2021-05-06T16:22:00Z,2021-05-06T19:22:00Z,71,NA,22.4,0.8,21.7925,NA,Y,recovered,Salar,"Black, M.; Wilson, B.",44.96338,-66.92045,45,NA,2021-11-26T14:47:00Z,2021-11-26T17:47:00Z,2021-12-13T12:06:00Z,2021-12-13T15:06:00Z,Y,Y,light,10,hydrozoan,Y,y,2.5,VR2W_122380_20211213_1.csv,NA
SHO-05,Head Harbour Passage,outer bay,122382,VR2W,NA,NA,point,November,seal haul-out,NA,NA,NA,NA,Groundskeeper,"Wilson, B.; Black, M.",44.94859,-66.94855,44° 56.915',-66° 56.913',44.95887,-66.92742,2021-05-06T16:30:00Z,2021-05-06T19:30:00Z,72,NA,3,0.8,2.37286,NA,Y,recovered,Salar,"Black, M.; Wilson, B.",44.95906,-66.92747,na,NA,2021-11-26T15:05:00Z,2021-11-26T18:05:00Z,2021-12-13T13:21:00Z,2021-12-13T16:21:00Z,Y,Y,light,10,hydrozoan,Y,y,1.2,VR2W_122382_20211213_1.csv,NA
SHO-06,Fundy Isles,outer bay,134775,VR2W,NA,NA,point,November,seal haul-out,NA,NA,NA,NA,Eubalaena,"Wilson, B.; Black, M.",45.02195,-66.92268,NA,NA,45.02195,-66.92268,2021-05-13T11:28:00Z,2021-05-13T14:28:00Z,127,NA,1.4,0.8,0.82783,NA,Y,recovered,Salar,"Black, M.; Wilson, B.",45.02195,-66.92268,44,NA,2021-11-26T14:10:00Z,2021-11-26T17:10:00Z,2021-12-13T12:10:00Z,2021-12-13T15:10:00Z,Y,Y,light,10,hydrozoan,Y,y,1.1,VR2W_134775_20211213_1.csv,NA
SHO-07,Fundy Isles,outer bay,134769,VR2W,NA,NA,point,November,seal haul-out,NA,NA,NA,NA,Eubalaena,"Wilson, B.; Black, M.",45.01132,-66.90241,NA,NA,45.01132,-66.90241,2021-05-14T11:47:00Z,2021-05-13T14:47:00Z,128,NA,16.1,0.8,15.5349,NA,Y,recovered,Salar,"Black, M.; Bradford, H.",45.01132,-66.90313,27,14.8,2021-11-26T09:29:00Z,2021-11-26T12:29:00Z,2021-11-26T09:37:00Z,2021-11-26T12:37:00Z,Y,Y,light,0,ulva,Y,Y,0.6,VR2W_134769_20211126_1.csv,NA
SHO-08,Head Harbour Passage,outer bay,104649,VR2W,NA,NA,point,November,seal haul-out,NA,NA,NA,NA,Eubalaena,"Wilson, B.; Black, M.",44.94523,-66.94689,NA,NA,44.947481,-66.950463,2021-09-17T13:25:00Z,2021-09-17T16:25:00Z,NA,NA,4.2,0.8,3.56443,NA,Y,recovered,Salar,"Black, M.; Bradford, H.",44.94668,-66.9508,29,11.3,2021-11-26T10:39:00Z,2021-11-26T13:39:00Z,2021-11-26T08:26:00Z,2021-11-26T11:26:00Z,Y,Y,clean,0,none,Y,Y,0.2,VR2W_104649_20211126_1.csv,NA
TS-01,Passamaquoddy Bay,inner bay,108838,VR2W,NA,NA,point,November,seal haul-out,NA,NA,NA,NA,Eubalaena,"Wilson, B.; Black, M.",45.066138,-67.012038,NA,NA,45.066117,-67.012217,2021-09-17T12:00:00Z,2021-09-17T15:00:00Z,NA,NA,9.6,0.8,8.95412,NA,Y,recovered,Viola,"Black, M.; Wilson, B.",45.0657,-67.01158,24,14.2,2021-11-24T12:34:00Z,2021-11-24T15:34:00Z,2021-11-24T12:36:00Z,2021-11-24T15:36:00Z,Y,Y,light,10,hydrozoan,Y,Y,0.2,VR2W_108838_20211124_1.csv,NA
WBAT-01,Passamaquoddy Bay,inner bay,133268,VR2W,NA,NA,point,November,profiler,NA,NA,NA,NA,Viola,"Wilson, B.; Black, M.",45.01514,-66.97795,NA,NA,45.01597,-66.98015,2021-07-30T10:52:00Z,2021-07-30T13:52:00Z,NA,30,32.4,0.8,31.7576,NA,Y,recovered,Viola,"Black, M.; Bradford, H.",45.01597,-66.98015,NA,30,2021-11-01T11:11:00Z,2021-11-01T14:11:00Z,2021-11-02T14:34:00Z,2021-11-02T17:34:00Z,Y,Y,clean,0,none,Y,y,0.6,VR2W_133268_20211102_1.csv,NA
WETLAB-01,SABS,NA,134767,VR2W,NA,NA,point,November,tester,NA,NA,NA,NA,shore,"Wilson, B.",45.08097,-67.08392,45° 4.858',-67° 5.035',45.080973,-67.083921,NA,NA,NA,NA,NA,NA,NA,NA,NA,NA,NA,NA,NA,NA,NA,NA,NA,NA,NA,NA,y,y,clean,0,none,y,y,NA,NA,NA
WP-I-01,Western Passage,inner bay,548175,VR2AR,60639,A69-1601-60639,gate,November,bay,NA,NA,NA,NA,Groundskeeper,"Wilson, B.; Black, M.",44.97852,-67.04841,44° 58.711',-67° 2.905',44.97855,-67.04841,2021-05-06T09:51:00Z,2021-05-06T12:51:00Z,37,NA,5.6,2.5,5.02196,NA,Y,recovered,Viola,"Black, M.; Wilson, B.",44.9779,-67.04817,67,NA,2021-11-30T09:46:00Z,2021-11-30T12:46:00Z,2021-12-10T14:26:00Z,2021-12-10T17:26:00Z,Y,Y,heavy,75,ciona,Y,Y,7.2,VR2AR_548175_20211210_1.csv,NA
WP-I-02,Western Passage,inner bay,548176,VR2AR,60640,A69-1601-60640,gate,November,bay,NA,NA,NA,NA,Groundskeeper,"Wilson, B.; Black, M.",44.97787,-67.04237,44° 58.672',-67° 2.542',44.97804,-67.04251,2021-05-06T09:49:00Z,2021-05-06T12:49:00Z,36,NA,28.8,2.5,28.1649,NA,Y,recovered,Viola,"Black, M.; Wilson, B.",44.97762,-67.04185,66,NA,2021-11-30T09:41:00Z,2021-11-30T12:41:00Z,2021-12-10T13:45:00Z,2021-12-10T16:45:00Z,Y,Y,medium,50,ciona,Y,Y,10.4,VR2AR_548176_20211210_1.csv,NA
WP-I-03,Western Passage,inner bay,548177,VR2AR,60641,A69-1601-60641,gate,November,bay,NA,NA,NA,NA,Groundskeeper,"Wilson, B.; Black, M.",44.9772,-67.03621,44° 58.632',-67° 2.172',44.97749,-67.03624,2021-05-06T09:46:00Z,2021-05-06T12:46:00Z,35,NA,71.8,2.5,71.1506,NA,N,recovered,fisherman,fisherman,NA,NA,NA,NA,NA,NA,NA,NA,NA,NA,NA,NA,NA,NA,NA,NA,NA,NA
WP-I-03B,Western Passage,inner bay,549013,VR2AR,61477,A69-1601-61477,gate,November,bay,NA,NA,NA,NA,Salar,"Wilson, B.; Black, M.",44.977197,-67.036206,44° 58.632',-67° 2.172',44.97734,-67.03645,2021-08-27T13:42:00Z,2021-08-27T16:42:00Z,732,NA,71.8,2.5,71.1506,NA,Y,recovered,Viola,"Black, M.; Wilson, B.",44.97695,-67.03635,65,NA,2021-11-30T09:31:00Z,2021-11-30T12:31:00Z,2021-12-03T16:47:00Z,2021-12-03T19:47:00Z,Y,Y,light,0,none,Y,Y,2.7,VR2AR_549013_20211203_1.csv,NA
WP-I-04,Western Passage,inner bay,548178,VR2AR,60642,A69-1601-60642,gate,November,bay,NA,NA,NA,NA,Groundskeeper,"Wilson, B.; Black, M.",44.97651,-67.0299,44° 58.591',-67° 1.794',44.97657,-67.03006,2021-05-06T09:44:00Z,2021-05-06T12:44:00Z,34,NA,74.6,2.5,73.9768,NA,Y,recovered,Viola,"Black, M.; Wilson, B.",44.97613,-67.03008,64,NA,2021-11-30T09:25:00Z,2021-11-30T12:25:00Z,2021-12-10T14:06:00Z,2021-12-10T17:06:00Z,Y,Y,light,0,none,Y,Y,10.3,VR2AR_548178_20211210_1.csv,NA
WP-I-05,Western Passage,inner bay,548179,VR2AR,60643,A69-1601-60643,gate,November,bay,NA,NA,NA,NA,Groundskeeper,"Wilson, B.; Black, M.",44.97584,-67.02373,44° 58.550',-67° 1.424',44.9757,-67.02396,2021-05-06T09:41:00Z,2021-05-06T12:41:00Z,33,NA,54.2,2.5,53.637,NA,Y,recovered,Viola,"Black, M.; Wilson, B.",44.9725,-67.02563,na,NA,2021-11-30T09:06:00Z,2021-11-30T12:06:06Z,2021-12-10T14:08:00Z,2021-12-10T17:08:00Z,Y,Y,light,0,none,Y,Y,8.6,VR2AR_548179_20211210_1.csv,NA
WP-O-01,Western Passage,inner bay,548180,VR2AR,60644,A69-1601-60644,gate,November,bay,NA,NA,NA,NA,Groundskeeper,"Wilson, B.; Black, M.",44.94566,-67.03074,44° 56.740',-67° 1.844',44.94564,-67.03052,2021-05-06T10:10:00Z,2021-05-06T13:10:00Z,38,NA,6.6,2.5,5.96644,NA,Y,recovered,Viola,"Black, M.; Wilson, B.",44.94527,-67.02988,660,NA,2021-07-05T10:04:00Z,2021-07-05T13:04:00Z,2021-07-05T12:59:00Z,2021-07-05T15:59:00Z,Y,Y,light,20,hydrozoan,Y,y,2.9,VR2AR_548180_20210705_1.csv,NA
WP-O-01B,Western Passage,inner bay,548645,VR2AR,61109,A69-1601-61109,gate,November,bay,NA,NA,NA,NA,Salar,"Wilson, B.; Black, M.",44.94566,-67.030741,44° 56.740',-67° 1.844',44.94534,-67.03072,2021-08-27T14:26:00Z,2021-08-27T17:26:00Z,737,NA,2.4,2.5,1.78578,NA,Y,recovered,Viola,"Black, M.; Wilson, B.",44.9452,-67.03048,68,9.8,2021-11-30T10:02:00Z,2021-11-30T13:02:00Z,2021-12-03T16:52:00Z,2021-12-03T19:52:00Z,Y,Y,light,20,hydrozoan,Y,Y,2,VR2AR_548645_20211203_1.csv,NA
WP-O-02,Western Passage,inner bay,548181,VR2AR,60645,A69-1601-60645,gate,November,bay,NA,NA,NA,NA,Groundskeeper,"Wilson, B.; Black, M.",44.94874,-67.02571,44° 56.925',-67° 1.543',44.94871,-67.02572,2021-05-06T10:13:00Z,2021-05-06T13:13:00Z,39,NA,28.4,2.5,27.8178,NA,Y,recovered,Viola,"Black, M.; Wilson, B.",44.94838,-67.02572,659,NA,2021-07-05T09:59:00Z,2021-07-05T12:59:00Z,2021-07-05T12:53:00Z,2021-07-05T15:53:00Z,Y,Y,clean,0,none,Y,y,3.6,VR2AR_548181_20210705_1.csv,NA
WP-O-02B,Western Passage,inner bay,549291,VR2AR,60133,A69-1601-60133,gate,November,bay,NA,NA,NA,NA,Salar,"Wilson, B.; Black, M.",44.948744,-67.025713,44° 56.925',-67° 1.543',44.94864,-67.02548,2021-08-27T14:19:00Z,2021-08-27T17:19:00Z,736,NA,28.5,2.5,27.9318,NA,Y,recovered,Viola,"Black, M.; Wilson, B.",44.948480000000004,-67.02546,63,NA,2021-11-29T14:01:00Z,2021-11-29T17:01:00Z,2021-11-29T14:26:00Z,2021-11-29T17:26:00Z,Y,Y,clean,0,none,Y,Y,2.4,VR2AR_549291_20211129_1.csv,NA
WP-O-03,Western Passage,inner bay,548182,VR2AR,60646,A69-1601-60646,gate,November,bay,NA,NA,NA,NA,Groundskeeper,"Wilson, B.; Black, M.",44.95173,-67.02085,44° 57.104',-67° 1.251',44.95222,-67.02118,2021-05-06T10:16:00Z,2021-05-06T13:16:00Z,40,NA,64.1,2.5,63.4968,NA,Y,recovered,Viola,"Black, M.; Wilson, B.",44.95242,-67.02173,658,NA,2021-07-05T09:53:00Z,2021-07-05T12:53:00Z,2021-07-05T12:49:00Z,2021-07-05T15:49:00Z,Y,Y,clean,0,none,Y,y,3.5,VR2AR_548182_20210705_1.csv,NA
WP-O-03B,Western Passage,inner bay,549292,VR2AR,60134,A69-1601-60134,gate,November,bay,NA,NA,NA,NA,Salar,"Wilson, B.; Black, M.",44.951731,-67.020846,44° 57.104',-67° 1.251',44.95166,-67.02068,2021-08-27T14:08:00Z,2021-08-27T17:08:00Z,735,NA,63.6,2.5,63.0424,NA,Y,recovered,Viola,"Black, M.; Wilson, B.",44.9512,-67.02076,62,NA,2021-11-29T13:53:00Z,2021-11-29T16:53:00Z,2021-11-29T14:22:00Z,2021-11-29T17:22:00Z,Y,Y,clean,0,none,Y,y,2.2,VR2AR_549292_20211129_1.csv,NA
WP-O-04,Western Passage,inner bay,548183,VR2AR,60647,A69-1601-60647,gate,November,bay,NA,NA,NA,NA,Groundskeeper,"Wilson, B.; Black, M.",44.95484,-67.01578,44° 57.290',-67° 0.947',44.95528,-67.01599,2021-05-06T10:19:00Z,2021-05-06T13:19:00Z,41,NA,117.6,2.5,117.003,NA,Y,recovered,Viola,"Black, M.; Wilson, B.",44.95496,-67.015588,657,NA,2021-07-05T09:42:00Z,2021-07-05T12:42:00Z,2021-07-05T12:37:00Z,2021-07-05T15:37:00Z,Y,Y,clean,0,none,Y,y,3.1,VR2AR_548183_20210705_1.csv,NA
WP-O-04B,Western Passage,inner bay,549334,VR2AR,60203,A69-1601-60203,gate,November,bay,NA,NA,NA,NA,Salar,"Wilson, B.; Black, M.",44.954839,-67.01578,44° 57.290',-67° 0.947',44.95477,-67.01598,2021-08-27T14:02:00Z,2021-08-27T17:02:00Z,734,NA,118.7,2.5,118.056,NA,Y,recovered,Viola,"Black, M.; Wilson, B.",44.95463,-67.0161,61,NA,2021-11-29T13:47:00Z,2021-11-29T16:47:00Z,2021-11-29T14:17:00Z,2021-11-29T17:17:00Z,Y,Y,clean,0,none,Y,y,2.1,VR2AR_549334_20211129_1.csv,NA
WP-O-05,Western Passage,inner bay,548184,VR2AR,60648,A69-1601-60648,gate,November,bay,NA,NA,NA,NA,Groundskeeper,"Wilson, B.; Black, M.",44.95795,-67.01071,44° 57.477',-67° 0.642',44.95805,-67.01063,2021-05-06T10:23:00Z,2021-05-06T13:23:00Z,42,NA,75.1,2.5,74.5324,NA,Y,recovered,Viola,"Black, M.; Wilson, B.",44.95741,-67.01021,656,NA,2021-07-05T09:35:00Z,2021-07-05T12:35:00Z,2021-07-05T11:41:00Z,2021-07-05T14:41:00Z,Y,Y,light,20,hydrozoan,Y,y,2.9,VR2AR_548184_20210705_1.csv,NA
WP-O-05B,Western Passage,inner bay,548647,VR2AR,61111,A69-1601-61111,gate,November,bay,NA,NA,NA,NA,Salar,"Wilson, B.; Black, M.",44.957952,-67.010705,44° 57.477',-67° 0.642',44.95799,-67.01116,2021-08-27T13:55:00Z,2021-08-27T16:55:00Z,733,NA,75.1,2.5,74.5324,NA,L,adrift,NA,NA,NA,NA,NA,NA,NA,NA,NA,NA,NA,NA,NA,NA,NA,NA,NA,NA,NA,struck down at 72m likely caught in ghost gear; released on Nov 29 and now adrift
WR-01,Saint Croix River,estuary,110156,VR2W,NA,NA,gate,November,river,NA,NA,NA,NA,Princecraft,"Wilson, B.; Black, M.",45.17912,-67.14512,45° 10.747',-67° 8.707',45.17915,-67.14488,2021-05-03T12:43:00Z,2021-05-03T15:43:00Z,25,NA,6.8,0.8,6.20026,NA,Y,recovered,Salar,"Black, M.; Wilson, B.",45.17915,-67.14488,NA,NA,2021-12-01T13:10:00Z,2021-12-01T16:10:00Z,2021-12-13T12:08:00Z,2021-12-13T15:08:00Z,Y,Y,light,0,none,Y,Y,1.1,VR2W_110156_20211213_1.csv,"float and line fouled, barely afloat - retreived at low, slack"
WR-02,Saint Croix River,estuary,115087,VR2W,NA,NA,gate,November,river,NA,NA,NA,NA,ABCO,"Wilson, B.; Black, M.",NA,NA,NA,NA,45.18701,-67.14494,2021-07-13T11:00:00Z,2021-07-13T14:00:00Z,710,8,4.2,0.8,3.57957,NA,y,recovered,Salar,"Black, M.; Wilson, B.",45.18755,-67.14492,993,9,2021-11-19T13:55:00Z,2021-11-19T16:55:00Z,2021-11-19T16:00:00Z,2021-11-19T19:00:00Z,Y,Y,light,0,none,Y,Y,1.7,VR2W_115087_20211119_2.csv,"receiver not reinitialized for redeployment, all detections before July 14th belong to DP-O-01 (DI-01 in VUE)"
WR-O1B,Saint Croix River,estuary,548189,VR2AR,60653,A69-1601-60653,gate,April,river,NA,NA,NA,NA,Salar,"Wilson, B.; Black, M.",NA,NA,NA,NA,45.18403,-67.14455,2021-11-19T14:09:00Z,2021-11-19T17:09:00Z,994,8,3,2.5,2.3908,NA,Y,recovered,Salar,"Black, M.; Wilson, B.; English, G.",45.18403,-67.14455,NA,NA,2022-05-11T13:55:00Z,2021-11-19T16:55:00Z,2022-05-11T14:48:00Z,2022-05-11T17:48:00Z,Y,Y,light,0,none,Y,Y,NA,VR2AR_548189_20220511_1.csv,NA
MF-0002-01,Grand Manan,coastal,137217,VR2W,NA,NA,aqua,November,aqua,Cooke,2b,MF-0002,Farmer's Ledge,Cooke,Cooke,44.72077,-66.72543,44° 43.246',-66° 43.526',44.72077,-66.72543,2021-05-06T12:00:00Z,2021-05-06T09:00:00Z,NA,NA,9.2,1.1,7.4,NA,Y,recovered,Cooke,Cooke,44.72077,-66.72543,NA,NA,2021-12-20T12:00:00Z,2021-12-20T15:00:00Z,2022-01-07T11:50:00Z,2022-01-07T14:50:00Z,Y,Y,NA,NA,NA,Y,y,0.8,VR2W_137217_20220107_1.csv,NA
MF-0012-01,Beaver Harbour,coastal,134776,VR2W,NA,NA,aqua,November,aqua,Cooke,3a,MF-0012,Drew's Cove,Cooke,Cooke,45.06603,-66.73428,45° 3.962',-66° 44.057',45.06603,-66.73428,2021-05-14T12:00:00Z,2021-05-14T09:00:00Z,NA,NA,6.9,1.1,7.4,NA,Y,recovered,Cooke,Cooke,45.06603,-66.73428,NA,NA,2021-12-22T12:00:00Z,2021-12-22T15:00:00Z,2021-12-23T15:20:00Z,2021-12-23T18:20:00Z,Y,Y,NA,NA,NA,Y,y,0.7,VR2W_134776_20211223_1.csv,NA
MF-0016-01,Limekiln Harbour,outer bay,136203,VR2W,NA,NA,aqua,November,aqua,Mowi,2a,MF-0016,Grand Manan,Eubalaena,"Wilson, B.; Black, M.",45.06117,-66.81453,45° 3.670',-66° 48.872',45.06084,-66.81453,2021-04-30T14:00:00Z,2021-04-30T17:00:00Z,21,NA,19.1,1.1,7.4,NA,y,recovered,Viola,"Black, M.; Wilson, B.; Bradford, H.",45.0611,-66.8141,13,23.2,2021-11-23T11:48:00Z,2021-11-23T14:48:00Z,2021-11-23T13:51:00Z,2021-11-23T16:51:00Z,Y,Y,light,20,jingle shells,Y,y,0.6,VR2W_136203_20211123_1.csv,NA
MF-0020-01,Limekiln Harbour,outer bay,137212,VR2W,NA,NA,aqua,November,aqua,Mowi,2a,MF-0020,Limekiln - Jail Island,Eubalaena,"Wilson, B.; Black, M.",45.06139,-66.83105,45° 3.683',-66° 49.863',45.06132,-66.83128,2021-04-30T13:31:00Z,2021-04-30T16:31:00Z,19,NA,14.4,1.1,7.4,NA,y,recovered,Viola,"Black, M.; Wilson, B.; Bradford, H.",45.06132,-66.83102,12,10.7,2021-11-23T11:38:00Z,2021-11-23T14:38:00Z,2021-11-23T13:58:00Z,2021-11-23T16:58:00Z,Y,Y,heavy,70,ciona,Y,y,0.6,VR2W_137212_20211123_1.csv,NA
MF-0022-01,Limekiln Harbour,outer bay,137213,VR2W,NA,NA,aqua,November,aqua,Mowi,2a,MF-0022,Birch Cove,Eubalaena,"Wilson, B.; Black, M.",45.05437,-66.82766,45° 3.262',-66° 49.660',45.0546,-66.82789,2021-04-30T13:43:00Z,2021-04-30T16:43:00Z,20,NA,18.1,1.1,7.4,NA,Y,recovered,Salar,"Black, M.; English, G.",45.0546,-66.82789,NA,NA,2021-12-15T13:15:00Z,2021-12-15T16:15:00Z,2021-12-16T13:31:00Z,2021-12-16T16:31:00Z,Y,Y,heavy,50,ciona,Y,y,0.7,VR2W_137213_20211216_1.csv,NA
MF-0026-01,Limekiln Harbour,outer bay,137214,VR2W,NA,NA,aqua,November,aqua,Cooke,2a,MF-0026,Hill's Island,Cooke,Cooke,45.04142,-66.82473,45° 2.485',-66° 49.484',45.04142,-66.82473,2021-05-14T12:00:00Z,2021-05-14T09:00:00Z,NA,NA,24.3,1.1,7.4,NA,Y,recovered,Cooke,Cooke,45.04142,-66.82473,NA,NA,2022-02-26T12:00:00Z,2022-02-26T15:00:00Z,2022-03-02T10:43:00Z,2022-03-02T13:43:00Z,Y,Y,NA,NA,NA,Y,Y,4.2,VR2W_137214_20220302_1.csv,NA
MF-0027-01,Limekiln Harbour,outer bay,137215,VR2W,NA,NA,aqua,November,aqua,Mowi,2a,MF-0027,Bar Island,Eubalaena,"Wilson, B.; Black, M.",45.0384,-66.8383,45° 2.304',-66° 50.298',45.03794,-66.83903,2021-04-30T14:18:00Z,2021-04-30T17:18:00Z,22,NA,15.2,1.1,7.4,NA,L,on bottom,NA,NA,NA,NA,NA,NA,NA,NA,NA,NA,NA,NA,NA,NA,NA,NA,NA,NA,NA,lines parted by Viola prop; sunk in position
MF-0037-01,Limekiln Harbour,outer bay,137216,VR2W,NA,NA,aqua,November,aqua,Cooke,2a,MF-0037,Crow Island,Cooke,Cooke,45.04121,-66.8736,45° 2.472',-66° 52.416',45.04121,-66.8736,2021-05-14T12:00:00Z,2021-05-14T09:00:00Z,NA,NA,26.5,1.1,7.4,NA,Y,recovered,Cooke,Cooke,45.04121,-66.8736,NA,NA,2021-12-16T09:57:00Z,2021-12-16T12:57:00Z,2021-12-23T14:47:00Z,2021-12-23T17:47:00Z,Y,Y,light,0,ciona,Y,y,13.4,VR2W_137216_20211223_1.csv,NA
MF-0044-01,Fundy Isles,outer bay,136194,VR2W,NA,NA,aqua,November,aqua,Cooke,1,MF-0044,Simpson's,Cooke,Cooke,44.99907,-66.91082,44° 59.944',-66° 54.649',44.99907,-66.91082,2021-05-14T12:00:00Z,2021-05-14T09:00:00Z,NA,NA,4.2,1.1,7.4,NA,Y,recovered,Cooke,Cooke,44.99907,-66.91082,NA,NA,2021-12-22T12:00:00Z,2021-12-22T15:00:00Z,2021-12-23T14:47:00Z,2021-12-23T17:47:00Z,Y,Y,light,0,ciona,Y,y,0.7,VR2W_136194_20211223_1.csv,NA
MF-0045-01,Fundy Isles,outer bay,136195,VR2W,NA,NA,aqua,November,aqua,Cooke,1,MF-0045,Boone Cove,Cooke,Cooke,45.0056,-66.92676,45° 0.336',-66° 55.606',45.0056,-66.92676,2021-05-14T12:00:00Z,2021-05-14T09:00:00Z,NA,NA,23.7,1.1,7.4,NA,Y,recovered,Cooke,Cooke,45.0056,-66.92676,NA,NA,2021-12-22T12:00:00Z,2021-12-22T15:00:00Z,2021-12-23T15:45:00Z,2021-12-23T18:45:00Z,Y,Y,light,0,ciona,Y,y,1,VR2W_136195_20211223_1.csv,NA
MF-0046-01,Fundy Isles,outer bay,136196,VR2W,NA,NA,aqua,November,aqua,Cooke,1,MF-0046,Lord's Cove,Cooke,Cooke,45.00027,-66.94474,45° 0.016',-66° 56.684',45.00027,-66.94474,2021-05-14T12:00:00Z,2021-05-14T09:00:00Z,NA,NA,10.7,1.1,7.4,NA,Y,recovered,Cooke,Cooke,45.00027,-66.94474,NA,NA,2021-12-22T12:00:00Z,2021-12-22T15:00:00Z,2021-12-23T15:08:00Z,2021-12-23T18:08:00Z,Y,Y,light,0,ciona,Y,y,0.7,VR2W_136196_20211223_1.csv,NA
MF-0051-01,Western Passage,outer bay,136197,VR2W,NA,NA,aqua,November,aqua,Cooke,1,MF-0051,Doctor's Cove,Cooke,Cooke,44.9353,-66.98185,44° 56.118',-66° 58.911',44.9353,-66.98185,2021-05-14T12:00:00Z,2021-05-14T09:00:00Z,NA,NA,9.4,1.1,7.4,NA,Y,recovered,Cooke,Cooke,44.9353,-66.98185,NA,NA,2021-11-30T11:34:00Z,2021-11-30T14:34:00Z,2021-12-23T14:39:00Z,2021-12-23T17:39:00Z,Y,Y,light,0,ciona,Y,y,5,VR2W_136197_20211223_1.csv,NA
MF-0052-01,Head Harbour Passage,outer bay,136199,VR2W,NA,NA,aqua,November,aqua,Mowi,1,MF-0052,Curry Cove,Eubalaena,"Wilson, B.; Black, M.",44.92341,-66.9382,44° 55.405',-66° 56.292',44.92372,-66.93832,2021-04-29T14:18:00Z,2021-04-29T17:18:00Z,14,NA,7.5,1.1,7.4,NA,Y,recovered,Viola,"Black, M.; Bradford, H.",44.9235,-66.93835,30,11.7,2021-11-25T10:51:00Z,2021-11-25T13:51:00Z,2021-12-01T10:18:00Z,2021-12-01T13:18:00Z,Y,Y,light,0,ciona,Y,Y,1.3,VR2W_136199_20220114_1.csv,NA
MF-0053-01,Head Harbour Passage,outer bay,136200,VR2W,NA,NA,aqua,November,aqua,Mowi,1,MF-0053,HDL - Otter Cove,Eubalaena,"Wilson, B.; Black, M.",44.91861,-66.93256,44° 55.117',-66° 55.954',44.91842,-66.93261,2021-04-29T14:41:00Z,2021-04-29T17:41:00Z,16,NA,6,1.1,7.4,NA,Y,recovered,Viola,"Black, M.; Bradford, H.",44.91828,-66.93233,31,6.5,2021-11-25T10:59:00Z,2021-11-25T13:59:00Z,2021-12-01T09:56:00Z,2021-12-01T12:56:00Z,Y,Y,light,90,hydrozoan,Y,Y,2.2,VR2W_136200_20220114_1.csv,NA
MF-0054-01,Head Harbour Passage,outer bay,136201,VR2W,NA,NA,aqua,November,aqua,Mowi,1,MF-0054,Man o' War,Eubalaena,"Wilson, B.; Black, M.",44.91926,-66.93783,44° 55.156',-66° 56.270',44.91963,-66.93777,2021-04-29T14:29:00Z,2021-04-29T17:29:00Z,15,NA,27.3,1.1,7.4,NA,L,lost,sunken,NA,NA,NA,NA,NA,NA,NA,NA,NA,NA,NA,NA,NA,NA,NA,NA,NA,NA,NA
MF-0055-01,Head Harbour Passage,outer bay,136202,VR2W,NA,NA,aqua,November,aqua,Cooke,1,MF-0055,Friar's Bay,Cooke,Cooke,44.88582,-66.95996,44° 53.149',-66° 57.598',44.88582,-66.95996,2021-05-14T12:00:00Z,2021-05-14T09:00:00Z,NA,NA,13,1.1,7.4,NA,Y,recovered,Cooke,Cooke,44.88582,-66.95996,NA,NA,2021-12-22T12:00:00Z,2021-12-22T15:00:00Z,2021-12-23T15:14:00Z,2021-12-23T18:14:00Z,Y,Y,light,10,hydrozoan,Y,y,0.8,VR2W_136202_20211223_1.csv,NA
MF-0059-01,Western Passage,inner bay,136198,VR2W,NA,NA,aqua,November,aqua,Cooke,1,MF-0059,Fairhaven,Cooke,Cooke,44.96558,-67.01284,44° 57.935',-67° 0.770',44.96558,-67.01284,2021-05-14T12:00:00Z,2021-05-14T09:00:00Z,NA,NA,13.1,1.1,7.4,NA,Y,recovered,Cooke,Cooke,44.96558,-67.01284,NA,NA,2021-11-23T09:29:00Z,2021-11-23T12:29:00Z,2021-12-23T15:53:00Z,2021-12-23T18:53:00Z,Y,Y,light,10,hydrozoan,Y,y,8.1,VR2W_136198_20211223_1.csv,NA
MF-0059-02,Western Passage,inner bay,108820,VR2W,65001,NA,aqua,November,aqua,Cooke,1,MF-0059,Fairhaven,Salar,"Wilson, B.; Black, M.",44.96336,-67.01235,NA,NA,44.96293,-67.01199,2021-09-13T11:02:00Z,2021-09-13T14:02:00Z,749,20,18.1,1.1,7.4,NA,Y,recovered,Salar,"Black, M.; English, G.",44.96293,-67.01199,NA,NA,2021-12-15T14:17:00Z,2021-12-15T17:17:00Z,2021-12-16T13:38:00Z,2021-12-16T16:38:00Z,Y,Y,light,10,hydrozoan,Y,y,7.5,VR2W_108820_20211216_1.csv,NA
MF-0059-03,Western Passage,inner bay,108821,VR2W,65002,NA,aqua,November,aqua,Cooke,1,MF-0059,Fairhaven,Salar,"Wilson, B.; Black, M.",44.963976,-67.014636,NA,NA,44.96409,-67.01526,2021-09-13T11:18:00Z,2021-09-13T14:18:00Z,750,7.6,8.3,1.1,7.4,NA,Y,recovered,Viola,"Black, M.; Bradford, H.",44.96405,-67.01553,33,8.5,2021-11-26T11:47:00Z,2021-11-26T14:47:00Z,2021-12-10T14:37:00Z,2021-12-10T17:37:00Z,Y,Y,light,10,hydrozoan,Y,Y,1.3,VR2W_108821_20211210_1.csv,NA
MF-0059-04,Western Passage,inner bay,108822,VR2W,65003,NA,aqua,November,aqua,Cooke,1,MF-0059,Fairhaven,Salar,"Wilson, B.; Black, M.",44.965626,-67.01398,NA,NA,44.966,-67.01411,2021-09-13T10:35:00Z,2021-09-13T13:35:00Z,747,12,11.4,1.1,7.4,NA,Y,recovered,Viola,"Black, M.; Bradford, H.",44.96598,-67.0139,34,13.7,2021-11-26T11:50:00Z,2021-11-26T14:50:00Z,2021-12-10T15:10:00Z,2021-12-10T18:10:00Z,Y,Y,clean,0,none,Y,Y,7.1,VR2W_108822_20211210_1.csv,NA
MF-0059-05,Western Passage,inner bay,108823,VR2W,65004,NA,aqua,November,aqua,Cooke,1,MF-0059,Fairhaven,Salar,"Wilson, B.; Black, M.",44.96506,-67.011714,NA,NA,44.96506,-67.01061,2021-09-13T10:48:00Z,2021-09-13T13:48:00Z,748,10,14.3,1.1,7.4,NA,Y,recovered,Viola,"Black, M.; Bradford, H.",44.96493,-67.0104,35,12.2,2021-11-26T11:58:00Z,2021-11-26T14:58:00Z,2021-12-10T15:00:00Z,2021-12-10T18:00:00Z,Y,Y,clean,0,none,Y,Y,7.4,VR2W_108823_20211210_1.csv,NA
MF-0059-06,Western Passage,inner bay,108824,VR2W,65005,NA,aqua,November,aqua,Cooke,1,MF-0059,Fairhaven,Cooke,Cooke,44.964493,-67.013165,NA,NA,44.96452,-67.01315,2021-09-10T15:57:00Z,2021-09-10T18:57:00Z,NA,NA,18,1.1,7.4,NA,Y,recovered,Cooke,Cooke,44.96452,-67.01315,NA,NA,2022-01-17T11:17:00Z,2022-01-17T14:17:00Z,2022-01-27T12:01:00Z,2022-01-27T15:01:00Z,Y,Y,clean,0,none,Y,Y,8.3,VR2W_108824_20220127_1.csv,NA
MF-0059-07,Western Passage,inner bay,108825,VR2W,65006,NA,aqua,November,aqua,Cooke,1,MF-0059,Fairhaven,Salar,"Wilson, B.; Black, M.",44.962734,-67.013801,NA,NA,44.96227,-67.01401,2021-09-13T11:41:00Z,2021-09-13T14:41:00Z,752,33,29.6,1.1,7.4,NA,Y,recovered,Viola,"Black, M.; Bradford, H.",44.96216,-67.01456,32,33.7,2021-11-26T11:35:00Z,2021-11-26T14:35:00Z,2021-12-10T14:47:00Z,2021-12-10T17:47:00Z,Y,Y,light,0,hydrozoan,Y,Y,5.9,VR2W_108825_20211210_1.csv,NA
MF-0059-08,Western Passage,inner bay,108832?,VR2W,NA,NA,aqua,November,aqua,Cooke,1,MF-0059,Fairhaven,Salar,Cooke,44.962028,-67.011058,NA,NA,44.96199,-67.01131,2021-09-13T11:30:00Z,2021-09-13T14:30:00Z,751,17,25.5,1.1,7.4,NA,L,sunken,NA,NA,NA,NA,NA,NA,NA,NA,NA,NA,NA,NA,NA,NA,NA,NA,NA,NA,NA,float went missing 10 days after deployment and not seen again; several days of grapnelling unsuccessful
MF-0172-01,Grand Manan,coastal,137218,VR2W,NA,NA,aqua,November,aqua,Cooke,2b,MF-0172,Ross Island,Cooke,Cooke,44.66705,-66.72018,44° 40.023',-66° 43.211',44.66705,-66.72018,2021-05-06T12:00:00Z,2021-05-06T09:00:00Z,NA,NA,11.8,1.1,7.4,NA,Y,recovered,Cooke,Cooke,44.66705,-66.72018,NA,NA,2021-12-20T12:00:00Z,2021-12-20T15:00:00Z,2022-01-07T11:55:00Z,2022-01-07T14:55:00Z,Y,Y,light,0,hydrozoan,Y,y,0.8,VR2W_137218_20220107_1.csv,NA
MF-0186-01,Fundy Isles,outer bay,134773,VR2W,NA,NA,aqua,November,aqua,Mowi,3c,MF-0186,Eagle Eye - Head Harbour,Eubalaena,"Wilson, B.; Black, M.",44.95451,-66.90215,44° 57.271',-66° 54.129',44.95491,-66.90282,2021-04-29T15:09:00Z,2021-04-29T18:09:00Z,17,NA,19,1.1,7.4,NA,Y,recovered,Viola,"Wilson, B.",44.95492,-66.90236,59,17.6,2021-11-29T12:23:00Z,2021-11-29T15:23:00Z,2021-11-29T13:07:00Z,2021-11-29T16:07:00Z,Y,Y,light,0,hydrozoan,Y,Y,0.7,VR2W_134773_20211129_1.csv,NA
MF-0206-01,Fundy Isles,outer bay,134774,VR2W,NA,NA,aqua,November,aqua,Mowi,3c,MF-0206,Cub's Point,Eubalaena,"Wilson, B.; Black, M.",44.94581,-66.9047,44° 56.748',-66° 54.282',44.94584,-66.90365,2021-04-29T15:23:00Z,2021-04-29T18:23:00Z,18,NA,12.7,1.1,7.4,NA,Y,recovered,Viola,"Wilson, B.",44.94572,-66.90398,60,6.8,2021-11-29T12:34:00Z,2021-11-29T15:34:00Z,2021-11-29T13:01:00Z,2021-11-29T16:01:00Z,Y,Y,light,20,hydrozoan,Y,Y,0.7,VR2W_134774_20211129_1.csv,NA
MF-0213-01,Grand Manan,coastal,137219,VR2W,NA,NA,aqua,November,aqua,Cooke,2b,MF-0213,Long Island,Cooke,Cooke,44.73441,-66.7317,44° 44.064',-66° 43.902',44.73441,-66.7317,2021-05-06T12:00:00Z,2021-05-06T09:00:00Z,NA,NA,12.2,1.1,7.4,NA,Y,recovered,Cooke,Cooke,44.73441,-66.7317,NA,NA,2021-12-20T12:00:00Z,2021-12-20T15:00:00Z,2022-01-07T11:59:00Z,2022-01-07T14:59:00Z,Y,Y,medium,25,hydrozoan,Y,y,4.2,VR2W_137219_20220107_1.csv,NA
MF-0222-01,Passamaquoddy Bay,inner bay,134763,VR2W,NA,NA,aqua,November,aqua,Mowi,1,MF-0222,Quoddy,Eubalaena,"Wilson, B.; Black, M.",45.01283,-66.98096,45° 0.770',-66° 58.858',45.0141,-66.98019,2021-04-29T13:40:00Z,2021-04-29T16:40:00Z,13,NA,35.4,1.1,7.4,NA,Y,recovered,Viola,"Black, M.; Wilson, B.",45.0141,-66.98019,NA,NA,2021-11-30T14:02:00Z,2021-11-30T17:02:00Z,2021-12-10T11:58:00Z,2021-12-10T14:58:00Z,Y,Y,medium,25,ciona,Y,Y,2,VR2W_134763_20211210_1.csv,NA
MF-0228-01,Passamaquoddy Bay,inner bay,134764,VR2W,NA,NA,aqua,November,aqua,Cooke,1,MF-0228,Davidson's Head,Cooke,Cooke,45.0175,-66.9736,45° 1.050',-66° 58.416',45.0175,-66.9736,2021-05-14T12:00:00Z,2021-05-14T09:00:00Z,NA,NA,30.2,1.1,7.4,NA,Y,recovered,Cooke,Cooke,45.0175,-66.9736,NA,NA,2021-12-22T12:00:00Z,2021-12-22T15:00:00Z,2021-12-23T15:50:00Z,2021-12-23T18:50:00Z,Y,Y,medium,25,ciona,Y,y,1,VR2W_134764_20211223_1.csv,NA
MF-0276-01,Limekiln Harbour,outer bay,134765,VR2W,NA,NA,aqua,November,aqua,Cooke,2a,MF-0276,Charlie Cove,Cooke,Cooke,45.03017,-66.86753,45° 1.810',-66° 52.052',45.03017,-66.86753,2021-05-14T12:00:00Z,2021-05-14T09:00:00Z,NA,NA,32.6,1.1,7.4,NA,Y,recovered,Cooke,Cooke,45.03017,-66.86753,NA,NA,2021-12-22T12:00:00Z,2021-12-22T15:00:00Z,2021-12-23T14:28:00Z,2021-12-23T17:28:00Z,Y,Y,medium,25,ciona,Y,y,2.1,VR2W_134765_20211223_1.csv,NA
MF-0282-01,Grand Manan,coastal,137220,VR2W,NA,NA,aqua,November,aqua,Cooke,2b,MF-0282,Nantucket,Cooke,Cooke,44.68833,-66.71373,44° 41.300',-66° 42.824',44.68833,-66.71373,2021-05-06T12:00:00Z,2021-05-06T09:00:00Z,NA,NA,7.3,1.1,7.4,NA,Y,recovered,Cooke,Cooke,44.68833,-66.71373,NA,NA,2021-12-20T12:00:00Z,2021-12-20T15:00:00Z,2022-01-07T11:52:00Z,2022-01-07T14:52:00Z,Y,Y,medium,25,hydrozoan,Y,y,0.8,VR2W_137220_20220107_1.csv,NA
MF-0298-01,Grand Manan,coastal,137221,VR2W,NA,NA,aqua,November,aqua,Cooke,2b,MF-0298,Great Duck,Cooke,Cooke,44.68194,-66.70071,44° 40.917',-66° 42.043',44.68194,-66.70071,2021-05-06T12:00:00Z,2021-05-06T09:00:00Z,NA,NA,13.9,1.1,7.4,NA,Y,recovered,Cooke,Cooke,44.68194,-66.70071,NA,NA,2021-12-20T12:00:00Z,2021-12-20T15:00:00Z,2022-01-07T11:45:00Z,2022-01-07T14:45:00Z,Y,Y,medium,25,hydrozoan,Y,y,1.2,VR2W_137221_20220107_1.csv,NA
MF-0300-01,Grand Manan,coastal,137222,VR2W,NA,NA,aqua,November,aqua,Cooke,2b,MF-0300,Andy's Ledge,Cooke,Cooke,44.67606,-66.70972,44° 40.563',-66° 42.583',44.67606,-66.70972,2021-05-06T12:00:00Z,2021-05-06T09:00:00Z,NA,NA,12.3,1.1,7.4,NA,Y,recovered,Cooke,Cooke,44.67606,-66.70972,NA,NA,2021-12-20T12:00:00Z,2021-12-20T15:00:00Z,2022-01-07T12:06:00Z,2022-01-07T15:06:00Z,Y,Y,medium,25,hydrozoan,Y,y,0.8,VR2W_137222_20220107_1.csv,NA
MF-0349-01,Grand Manan,coastal,137223,VR2W,NA,NA,aqua,November,aqua,Cooke,2b,MF-0349,Bancroft Point,Cooke,Cooke,44.71785,-66.73183,44° 43.071',-66° 43.910',44.71785,-66.73183,2021-05-06T12:00:00Z,2021-05-06T09:00:00Z,NA,NA,6.4,1.1,7.4,NA,Y,recovered,Cooke,Cooke,44.71785,-66.73183,NA,NA,2021-12-20T12:00:00Z,2021-12-20T15:00:00Z,2022-01-07T11:48:00Z,2022-01-07T14:48:00Z,Y,Y,medium,25,hydrozoan,Y,y,0.9,VR2W_137223_20220107_1.csv,NA
MF-0350-01,Grand Manan,coastal,137224,VR2W,NA,NA,aqua,November,aqua,Mowi,2b,MF-0350,?,Eubalaena,"Wilson, B.; Black, M.",44.72184,-66.7193,44° 43.311',-66° 43.158',44.72078,-66.7197,2021-05-04T11:17:00Z,2021-05-04T14:17:00Z,31,NA,13,1.1,7.4,NA,y,recovered,C&P,fisheries officers,44.72078,-66.7197,NA,NA,2021-12-04T14:00:00Z,2021-12-04T17:00:00Z,2022-01-06T12:44:00Z,2022-01-06T15:44:00Z,y,y,medium,25,hydrozoan,y,y,0.8,VR2W_137224_20220106_1.csv,NA
MF-0368-01,Grand Manan,coastal,137225,VR2W,NA,NA,aqua,November,aqua,Cooke,2b,MF-0368,Dutch Ledge,Cooke,Cooke,44.73012,-66.73825,44° 43.807',-66° 44.295',44.73012,-66.73825,2021-05-06T12:00:00Z,2021-05-06T09:00:00Z,NA,NA,8.2,1.1,7.4,NA,Y,recovered,Cooke,Cooke,44.73012,-66.73825,NA,NA,2021-12-20T12:00:00Z,2021-12-20T15:00:00Z,NA,NA,Y,Y,medium,25,hydrozoan,Y,y,5,VR2W_137225_20220107_1.csv,NA
MF-0377-01,Passamaquoddy Bay,inner bay,134768,VR2W,NA,NA,aqua,November,aqua,Cooke,1,MF-0377,St. Andrews,Cooke,Cooke,45.03045,-67.00638,45° 1.827',-67° 0.383',45.03045,-67.00638,2021-05-14T12:00:00Z,2021-05-14T09:00:00Z,NA,NA,25.8,1.1,7.4,NA,Y,recovered,Cooke,Cooke,45.03045,-67.00638,NA,NA,2021-12-08T10:47:00Z,2021-12-08T13:47:00Z,2021-12-23T15:00:00Z,2021-12-23T18:00:00Z,Y,Y,medium,25,ciona,Y,y,2.7,VR2W_134768_20211223_1.csv,NA
MF-0400-01,Maces Bay,coastal,134770,VR2W,NA,NA,aqua,November,aqua,Cooke,3a,MF-0400,Seeley's Cove,Cooke,Cooke,45.08121,-66.64347,45° 4.873',-66° 38.608',45.08121,-66.64347,2021-05-14T12:00:00Z,2021-05-14T09:00:00Z,NA,NA,25.2,1.1,7.4,NA,Y,recovered,Cooke,Cooke,45.08121,-66.64347,NA,NA,2021-12-22T12:00:00Z,2021-12-22T15:00:00Z,2021-12-23T15:39:00Z,2021-12-23T18:39:00Z,Y,Y,medium,25,hydrozoan,Y,y,2.4,VR2W_134770_20211223_1.csv,NA
MF-0404-01,Maces Bay,coastal,134771,VR2W,NA,NA,aqua,November,aqua,Cooke,3a,MF-0404,Welch Cove,Cooke,Cooke,45.08194,-66.48665,45° 4.917',-66° 29.199',45.08194,-66.48665,2021-05-14T12:00:00Z,2021-05-14T09:00:00Z,NA,NA,20.3,1.1,7.4,NA,L,adrift,NA,NA,NA,NA,NA,NA,NA,NA,NA,NA,NA,NA,NA,NA,NA,NA,NA,NA,NA,NA
MF-0412-01,Maces Bay,coastal,134772,VR2W,NA,NA,aqua,November,aqua,Cooke,3a,MF-0412,Red Head,Cooke,Cooke,45.10276,-66.57781,45° 6.165',-66° 34.669',45.10276,-66.57781,2021-05-14T12:00:00Z,2021-05-14T09:00:00Z,NA,NA,5.2,1.1,7.4,NA,Y,recovered,Cooke,Cooke,45.10276,-66.57781,NA,NA,2021-12-22T12:00:00Z,2021-12-22T15:00:00Z,2021-12-23T14:18:00Z,2021-12-23T17:18:00Z,Y,Y,medium,25,hydrozoan,Y,y,0.7,VR2W_134772_20211223_1.csv,NA
MF-0507-01,Maces Bay,coastal,134766,VR2W,NA,NA,aqua,November,aqua,Cooke,3a,MF-0507,Penn Island,Cooke,Cooke,45.09194,-66.61289,45° 5.516',-66° 36.773',45.09194,-66.61289,2021-05-14T12:00:00Z,2021-05-14T09:00:00Z,NA,NA,31.6,1.1,7.4,NA,Y,recovered,Cooke,Cooke,45.09194,-66.61289,NA,NA,2021-12-22T12:00:00Z,2021-12-22T15:00:00Z,2021-12-23T15:26:00Z,2021-12-23T18:26:00Z,Y,Y,medium,25,hydrozoan,Y,y,0.8,VR2W_134766_20211223_1.csv,NA
